<?xml version="1.0" encoding="UTF-8"?>
<kml xmlns="http://www.opengis.net/kml/2.2" xmlns:gx="http://www.google.com/kml/ext/2.2">
	<Document id="TbuluKmlVersion2">
		<name>2026-02-19 10:42:27</name>
		<Style id="TrackStyle_n">
			<IconStyle>
				<Icon>
					<href>https://files.2bulu.com/f/d1?downParams=BYohR0x5OLAr0OBxohfNOA%3D%3D%0A</href>
				</Icon>
			</IconStyle>
			<LineStyle>
				<color>ee0000ff</color>
				<width>5.000000</width>
			</LineStyle>
		</Style>
		<Style id="TrackStyle_h">
			<IconStyle>
				<Icon>
					<href>https://files.2bulu.com/f/d1?downParams=BYohR0x5OLAr0OBxohfNOA%3D%3D%0A</href>
				</Icon>
			</IconStyle>
			<LineStyle>
				<color>ff0000ff</color>
				<width>7.000000</width>
			</LineStyle>
		</Style>
		<StyleMap id="TrackStyle">
			<Pair>
				<key>normal</key>
				<styleUrl>#TrackStyle_n</styleUrl>
			</Pair>
			<Pair>
				<key>highlight</key>
				<styleUrl>#TrackStyle_h</styleUrl>
			</Pair>
		</StyleMap>
		<Style id="LineStringStyle">
			<LineStyle>
				<color>dd5cba55</color>
				<width>6.000000</width>
			</LineStyle>
		</Style>
		<Style id="startPointStyle">
			<IconStyle>
				<Icon>
					<href>https://files.2bulu.com/f/d1?downParams=n%2BVE0NaFmzwndk%2BZ75NU9A%3D%3D%0A</href>
				</Icon>
			</IconStyle>
		</Style>
		<Style id="endPointStyle">
			<IconStyle>
				<Icon>
					<href>https://files.2bulu.com/f/d1?downParams=0Q3GJ5o%2FHpsr0OBxohfNOA%3D%3D%0A</href>
				</Icon>
			</IconStyle>
		</Style>
		<Style id="MarkerStylePicture">
			<IconStyle>
				<Icon>
					<href>https://files.2bulu.com/f/d1?downParams=vMzvc3dTBl0r0OBxohfNOA%3D%3D%0A</href>
				</Icon>
			</IconStyle>
			<LabelStyle>
				<color>ff00ffff</color>
			</LabelStyle>
		</Style>
		<Style id="MarkerStyleSound">
			<IconStyle>
				<Icon>
					<href>https://files.2bulu.com/f/d1?downParams=poL0RfxWHTIr0OBxohfNOA%3D%3D%0A</href>
				</Icon>
			</IconStyle>
			<LabelStyle>
				<color>ff00ffff</color>
			</LabelStyle>
		</Style>
		<Style id="MarkerStyleVideo">
			<IconStyle>
				<Icon>
					<href>https://files.2bulu.com/f/d1?downParams=vMzvc3dTBl0r0OBxohfNOA%3D%3D%0A</href>
				</Icon>
			</IconStyle>
			<LabelStyle>
				<color>ff00ffff</color>
			</LabelStyle>
		</Style>
		<Style id="MarkerStyleText">
			<IconStyle>
				<Icon>
					<href>https://files.2bulu.com/f/d1?downParams=s2An6%2B3%2BIWUr0OBxohfNOA%3D%3D%0A</href>
				</Icon>
			</IconStyle>
			<LabelStyle>
				<color>ff00ffff</color>
			</LabelStyle>
		</Style>
		<ExtendedData>
			<Data name="TrackId">
				<value>0</value>
			</Data>
			<Data name="SportTypeId">
				<value>18</value>
			</Data>
			<Data name="BeginTime">
				<value>1771468947234</value>
			</Data>
			<Data name="EndTime">
				<value>1771487526127</value>
			</Data>
			<Data name="Privacy">
				<value>0</value>
			</Data>
			<Data name="PauseTime">
				<value>5884255</value>
			</Data>
			<Data name="TrackTypeId">
				<value>8</value>
			</Data>
			<Data name="TrackTags">
				<value><![CDATA[徒步]]></value>
			</Data>
			<Data name="PosStartName">
			</Data>
			<Data name="PosEndName">
			</Data>
			<Data name="ProductVersion">
				<value>8.0.3</value>
			</Data>
			<Data name="ContextInfo">
				<value>region:zh_CN;lan:zh-Hans;model:iPhone15,2;system:16.4.1;app:2bulu-V8.0.3</value>
			</Data>
			<Data name="CreaterId">
				<value>51524658</value>
			</Data>
			<Data name="CreaterName">
				<value>Peppax</value>
			</Data>
			<Data name="CreaterIcon">
				<value>1526918279</value>
			</Data>
			<Data name="OriginCreaterId">
				<value>51524658</value>
			</Data>
			<Data name="OriginCreaterName">
				<value>Peppax</value>
			</Data>
			<Data name="OriginCreaterNickname">
			</Data>
			<Data name="OriginCreaterIcon">
				<value>1526918279</value>
			</Data>
			<Data name="ThumbnailId">
				<value>0</value>
			</Data>
			<Data name="Step">
				<value>20839</value>
			</Data>
			<Data name="Calorie">
				<value>901.319031</value>
			</Data>
			<Data name="Mileage">
				<value>8641.686914</value>
			</Data>
			<Data name="Source">
				<value>0</value>
			</Data>
			<Data name="FragmentId">
				<value>0</value>
			</Data>
		</ExtendedData>
		<Folder id="TbuluHisPointFolder">
			<name><![CDATA[标注点]]></name>
			<Placemark id="startPoint">
				<name><![CDATA[起点]]></name>
				<description><![CDATA[<div>经度：98.767505</div><div>纬度：28.085522</div><div>海拔：3465.364680</div><div>时间：2026-02-19 10:42:44</div>]]></description>
				<styleUrl>#startPointStyle</styleUrl>
				<Point>
					<coordinates>98.767505,28.085522,3465.364680</coordinates>
				</Point>
			</Placemark>
			<Placemark id="endPoint">
				<name><![CDATA[终点]]></name>
				<description><![CDATA[<div>经度：98.767474</div><div>纬度：28.085630</div><div>海拔：3466.950230</div><div>时间：2026-02-19 15:51:34</div>]]></description>
				<styleUrl>#endPointStyle</styleUrl>
				<Point>
					<coordinates>98.767474,28.085630,3466.950230</coordinates>
				</Point>
			</Placemark>
		</Folder>
		<Folder id="TbuluTrackFolder">
			<name><![CDATA[轨迹]]></name>
			<Placemark>
				<styleUrl>#TrackStyle</styleUrl>
				<gx:Track>
					<ExtendedData>
						<Data name="GxTrackExtendedData">
							<value>0.636461,0.0;0.898839,0.0;0.297452,0.0;0.481623,0.0;0.353715,0.0;0.238010,0.0;0.666060,0.0;0.300501,0.0;0.326259,0.0;0.568628,0.0;0.333064,0.0;0.582374,0.0;0.524994,0.0;0.480417,0.0;0.379969,0.0;0.150157,0.0;0.415767,0.0;0.068572,0.0;0.414874,0.0;0.461437,0.0;0.450410,0.0;0.125056,0.0;0.150815,0.0;0.150890,0.0;0.449281,0.0;0.282369,0.0;0.349475,0.0;0.458718,0.0;0.502210,0.0;0.421599,0.0;0.434554,0.0;0.243757,0.0;0.369981,0.0;0.403786,0.0;0.278656,0.0;0.084264,0.0;0.085877,0.0;0.722888,0.0;0.247605,0.0;0.323956,0.0;0.229034,0.0;0.676675,0.0;0.605310,0.0;0.309500,0.0;0.427372,0.0;0.515083,0.0;0.374611,0.0;0.277854,0.0;0.300907,0.0;0.490661,0.0;0.407492,0.0;0.377625,0.0;0.482894,0.0;0.043784,0.0;0.167317,0.0;0.588388,0.0;0.311345,0.0;0.445968,0.0;0.269916,0.0;0.875633,0.0;0.470364,0.0;0.592715,0.0;0.479272,0.0;0.235792,0.0;0.249783,0.0;0.296212,0.0;0.122256,0.0;0.111924,0.0;0.399756,0.0;0.081500,0.0;0.046349,0.0;0.252722,0.0;0.129002,0.0;0.066428,0.0;0.502246,0.0;0.528384,0.0;0.358083,0.0;0.344820,0.0;0.364003,0.0;0.352936,0.0;0.495844,0.0;0.559665,0.0;0.630311,0.0;0.398164,0.0;0.462486,0.0;0.882299,0.0;0.476728,0.0;0.940725,0.0;0.347663,0.0;0.092689,0.0;0.508317,0.0;0.102919,0.0;0.170290,0.0;0.115470,0.0;0.590289,0.0;0.206707,0.0;0.823301,0.0;0.672381,0.0;0.397150,0.0;0.229713,0.0;0.518037,0.0;0.544026,0.0;0.559420,0.0;1.336639,0.0;0.901312,0.0;0.777147,0.0;0.704773,0.0;0.522118,0.0;0.812235,0.0;0.161980,0.0;0.359414,0.0;0.343728,0.0;0.602530,0.0;0.447731,0.0;0.295857,0.0;0.459796,0.0;0.536791,0.0;0.496049,0.0;0.524710,0.0;0.287436,0.0;0.117587,0.0;0.145326,0.0;0.359954,0.0;0.259381,0.0;0.400048,0.0;0.800045,0.0;0.814596,0.0;0.518594,0.0;0.495265,0.0;0.521058,0.0;0.641135,0.0;0.575207,0.0;0.523893,0.0;0.429563,0.0;0.597530,0.0;0.495568,0.0;0.328063,0.0;0.462739,0.0;0.438130,0.0;0.608724,0.0;0.423093,0.0;0.538656,0.0;0.760266,0.0;0.446368,0.0;0.260096,0.0;0.090298,0.0;0.184431,0.0;0.284932,0.0;0.066573,0.0;0.033293,0.0;0.655595,0.0;0.242665,0.0;0.167616,0.0;0.270565,0.0;0.519636,0.0;0.329800,0.0;0.156934,0.0;0.419334,0.0;0.571007,0.0;0.316377,0.0;0.486098,0.0;0.567218,0.0;0.395738,0.0;0.536074,0.0;0.371059,0.0;0.679720,0.0;0.375234,0.0;0.595190,0.0;0.524438,0.0;0.914405,0.0;0.594343,0.0;0.802987,0.0;0.659821,0.0;0.772892,0.0;0.566823,0.0;0.635912,0.0;1.125942,0.0;0.725156,0.0;0.938768,0.0;0.990027,0.0;0.754465,0.0;0.707592,0.0;0.657999,0.0;0.691109,0.0;0.643008,0.0;0.671364,0.0;0.716856,0.0;0.713613,0.0;0.763902,0.0;0.961211,0.0;0.977321,0.0;0.506299,0.0;0.540069,0.0;0.822046,0.0;0.814124,0.0;0.425156,0.0;1.301116,0.0;1.155474,0.0;0.928800,0.0;0.535864,0.0;0.673853,0.0;1.018414,0.0;0.781533,0.0;0.939767,0.0;0.531866,0.0;0.652834,0.0;0.724324,0.0;0.547971,0.0;1.109702,0.0;0.816962,0.0;0.928496,0.0;0.887099,0.0;0.734147,0.0;1.112167,0.0;0.946559,0.0;1.097140,0.0;0.869859,0.0;0.872582,0.0;1.604377,0.0;0.784641,0.0;1.019435,0.0;0.426020,0.0;0.951602,0.0;0.738768,0.0;0.914145,0.0;0.817609,0.0;1.225292,0.0;0.978528,0.0;0.620628,0.0;0.733945,0.0;0.640518,0.0;0.768337,0.0;0.886216,0.0;1.122022,0.0;1.198873,0.0;1.160260,0.0;1.145459,0.0;1.043369,0.0;1.244378,0.0;0.594123,0.0;0.936981,0.0;1.117893,0.0;1.169565,0.0;1.105499,0.0;1.100071,0.0;0.639494,0.0;1.216322,0.0;0.566330,0.0;0.979341,0.0;1.205119,0.0;1.149520,0.0;0.599579,0.0;1.264344,0.0;0.926493,0.0;0.102103,0.0;0.084646,0.0;0.000000,0.0;0.952078,0.0;0.551987,0.0;1.749667,0.0;0.000000,0.0;5.812137,0.0;0.111160,0.0;0.105887,0.0;2.216460,0.0;0.033663,0.0;0.225978,0.0;0.077828,0.0;0.056318,0.0;0.190827,0.0;0.131137,0.0;0.716911,0.0;0.484586,0.0;1.300642,0.0;0.414756,0.0;0.634502,0.0;0.477321,0.0;1.415048,0.0;1.083160,0.0;0.462880,0.0;0.813740,0.0;0.859577,0.0;0.578301,0.0;0.922145,0.0;0.692317,0.0;0.496106,0.0;0.799363,0.0;0.800332,0.0;0.577856,0.0;0.474781,0.0;0.553094,0.0;0.707540,0.0;0.452786,0.0;0.712290,0.0;0.737813,0.0;0.888447,0.0;0.431352,0.0;0.633763,0.0;0.519214,0.0;0.703010,0.0;0.463627,0.0;0.703464,0.0;0.301863,0.0;0.267261,0.0;0.502501,0.0;0.819172,0.0;0.845619,0.0;0.539499,0.0;0.901616,0.0;0.995828,0.0;0.639647,0.0;1.210068,0.0;0.988095,0.0;0.657547,0.0;0.744921,0.0;0.830645,0.0;0.453920,0.0;0.443776,0.0;0.775008,0.0;0.779211,0.0;1.080736,0.0;0.867533,0.0;0.738442,0.0;0.961392,0.0;1.031744,0.0;1.172344,0.0;0.586242,0.0;0.574322,0.0;0.719840,0.0;0.857282,0.0;0.651420,0.0;0.737175,0.0;0.901356,0.0;1.036905,0.0;1.043651,0.0;0.717453,0.0;0.884667,0.0;0.709921,0.0;0.416918,0.0;1.037509,0.0;1.105129,0.0;0.838966,0.0;0.954129,0.0;0.681758,0.0;0.726839,0.0;1.076196,0.0;0.629362,0.0;1.231658,0.0;1.058879,0.0;1.279977,0.0;1.149412,0.0;1.079827,0.0;0.934654,0.0;0.944142,0.0;0.276678,0.0;0.722545,0.0;0.952425,0.0;0.110838,0.0;0.067492,0.0;1.206150,0.0;1.290082,0.0;1.227933,0.0;0.845969,0.0;1.170775,0.0;0.281139,0.0;0.771461,0.0;0.698214,0.0;0.898912,0.0;0.996717,0.0;1.132634,0.0;1.037792,0.0;0.701932,0.0;1.096535,0.0;1.365192,0.0;1.164697,0.0;0.908875,0.0;0.797795,0.0;0.779329,0.0;0.957398,0.0;0.617909,0.0;0.919000,0.0;0.750250,0.0;0.682270,0.0;0.860745,0.0;1.173703,0.0;1.311864,0.0;1.023799,0.0;1.161150,0.0;0.888210,0.0;1.127567,0.0;1.015338,0.0;1.002597,0.0;0.907231,0.0;0.859819,0.0;0.557916,0.0;1.001897,0.0;0.880100,0.0;0.827409,0.0;0.725198,0.0;1.064657,0.0;0.899696,0.0;0.810824,0.0;1.001975,0.0;0.752941,0.0;0.521965,0.0;0.760556,0.0;1.009459,0.0;1.034179,0.0;1.272659,0.0;1.158289,0.0;0.955875,0.0;0.284450,0.0;1.142013,0.0;0.715320,0.0;0.601286,0.0;0.027556,0.0;0.116130,0.0;0.228086,0.0;0.470356,0.0;1.075099,0.0;1.056089,0.0;1.439474,0.0;1.344238,0.0;1.204616,0.0;1.360125,0.0;1.249704,0.0;1.422354,0.0;1.365673,0.0;1.370630,0.0;1.346297,0.0;1.142742,0.0;1.083478,0.0;0.959646,0.0;1.171136,0.0;1.336152,0.0;0.938424,0.0;1.188577,0.0;1.273221,0.0;1.297168,0.0;1.064796,0.0;1.225711,0.0;1.145050,0.0;1.427102,0.0;1.634238,0.0;1.639054,0.0;1.664492,0.0;1.247466,0.0;0.941438,0.0;1.099040,0.0;0.879522,0.0;1.074949,0.0;0.713380,0.0;0.980553,0.0;0.797267,0.0;0.918239,0.0;0.893929,0.0;0.738325,0.0;1.188021,0.0;0.818847,0.0;1.015750,0.0;0.953512,0.0;1.080799,0.0;1.305367,0.0;1.072813,0.0;1.073269,0.0;0.690399,0.0;0.436946,0.0;0.963007,0.0;1.306570,0.0;0.914443,0.0;1.053296,0.0;1.113783,0.0;1.149981,0.0;1.234197,0.0;1.127154,0.0;1.138685,0.0;1.084164,0.0;1.146532,0.0;1.255697,0.0;1.114465,0.0;1.172112,0.0;1.059956,0.0;1.123974,0.0;0.830077,0.0;0.933197,0.0;1.166743,0.0;1.236901,0.0;0.977350,0.0;1.114596,0.0;1.042759,0.0;0.834536,0.0;1.174608,0.0;1.164800,0.0;1.027325,0.0;0.973191,0.0;1.116717,0.0;1.324751,0.0;0.991891,0.0;1.037070,0.0;1.068107,0.0;1.107421,0.0;1.093830,0.0;1.106370,0.0;0.934718,0.0;0.875508,0.0;1.013849,0.0;1.259721,0.0;0.823163,0.0;1.054672,0.0;0.951377,0.0;0.872371,0.0;1.122715,0.0;1.088615,0.0;1.128834,0.0;1.045071,0.0;1.033358,0.0;1.282370,0.0;1.256676,0.0;1.347801,0.0;1.109313,0.0;0.964580,0.0;1.241160,0.0;1.049174,0.0;1.115599,0.0;1.048791,0.0;1.083867,0.0;1.013517,0.0;1.045827,0.0;1.112452,0.0;1.176274,0.0;1.201877,0.0;1.091323,0.0;1.134187,0.0;1.006973,0.0;1.087774,0.0;0.905329,0.0;0.769452,0.0;0.865371,0.0;0.833955,0.0;0.990447,0.0;1.143541,0.0;0.974271,0.0;1.024618,0.0;1.180626,0.0;1.028618,0.0;1.131691,0.0;1.152941,0.0;0.921674,0.0;0.900740,0.0;1.150457,0.0;1.198685,0.0;1.202462,0.0;1.305881,0.0;0.740829,0.0;0.888613,0.0;0.861235,0.0;1.035705,0.0;1.026440,0.0;1.017257,0.0;1.001806,0.0;1.225380,0.0;1.297665,0.0;1.163308,0.0;0.886254,0.0;0.649264,0.0;0.821640,0.0;0.725004,0.0;1.108740,0.0;0.762244,0.0;0.844617,0.0;0.791421,0.0;0.960988,0.0;0.996395,0.0;0.896842,0.0;0.903289,0.0;0.846040,0.0;0.960871,0.0;0.820253,0.0;0.848648,0.0;0.874960,0.0;0.777236,0.0;0.705240,0.0;0.755383,0.0;0.789038,0.0;0.701927,0.0;0.813922,0.0;0.899628,0.0;0.933987,0.0;0.689347,0.0;0.782535,0.0;0.768373,0.0;0.596501,0.0;0.817799,0.0;0.980452,0.0;0.898217,0.0;1.416118,0.0;1.017239,0.0;0.783913,0.0;0.099260,0.0;0.968930,0.0;0.711816,0.0;0.652683,0.0;1.083293,0.0;1.004443,0.0;0.682929,0.0;1.179597,0.0;1.222956,0.0;1.265088,0.0;1.222436,0.0;1.580150,0.0;1.562714,0.0;1.679261,0.0;1.208691,0.0;1.173879,0.0;1.055710,0.0;1.200250,0.0;1.174594,0.0;1.230660,0.0;1.253904,0.0;1.257924,0.0;1.133987,0.0;1.337208,0.0;1.230821,0.0;1.042555,0.0;1.059602,0.0;1.248121,0.0;1.235255,0.0;1.385218,0.0;1.366267,0.0;0.780591,0.0;0.837203,0.0;0.658991,0.0;0.401061,0.0;0.903771,0.0;0.840330,0.0;0.068693,0.0;0.630512,0.0;0.744445,0.0;0.717496,0.0;1.073599,0.0;0.830572,0.0;1.546305,0.0;1.176469,0.0;1.284010,0.0;0.667367,0.0;0.653726,0.0;0.514110,0.0;0.804845,0.0;0.961252,0.0;0.609546,0.0;1.051498,0.0;1.122637,0.0;0.294317,0.0;0.642980,0.0;0.622344,0.0;0.506379,0.0;0.918418,0.0;1.096732,0.0;0.455461,0.0;0.399740,0.0;0.531459,0.0;0.368987,0.0;0.636934,0.0;0.513873,0.0;0.667177,0.0;0.401765,0.0;0.432523,0.0;0.794769,0.0;0.407413,0.0;0.882301,0.0;0.692719,0.0;0.650391,0.0;0.781815,0.0;0.632373,0.0;0.649134,0.0;0.795795,0.0;0.658266,0.0;0.665163,0.0;0.809000,0.0;0.943997,0.0;0.682511,0.0;0.845579,0.0;0.460652,0.0;0.677084,0.0;1.033519,0.0;1.000318,0.0;0.644402,0.0;1.082041,0.0;1.067708,0.0;0.983338,0.0;1.427403,0.0;1.121302,0.0;0.782988,0.0;0.688531,0.0;1.037373,0.0;1.002624,0.0;1.295540,0.0;1.165108,0.0;1.028907,0.0;0.983263,0.0;1.190894,0.0;0.997393,0.0;1.080396,0.0;1.360653,0.0;1.160968,0.0;1.294224,0.0;0.788891,0.0;0.835902,0.0;1.360207,0.0;0.948230,0.0;0.777931,0.0;0.125483,0.0;0.368141,0.0;0.457147,0.0;0.403600,0.0;0.657196,0.0;0.175481,0.0;0.315185,0.0;0.433084,0.0;0.433094,0.0;0.102314,0.0;0.286075,0.0;0.455291,0.0;0.825107,0.0;0.586019,0.0;0.433452,0.0;0.531744,0.0;1.120040,0.0;0.460172,0.0;0.629728,0.0;0.650561,0.0;0.732850,0.0;0.965248,0.0;0.724525,0.0;0.036736,0.0;0.558241,0.0;1.119586,0.0;0.955113,0.0;1.278337,0.0;1.086510,0.0;1.305911,0.0;1.165757,0.0;0.425146,0.0;0.696322,0.0;0.396094,0.0;0.484551,0.0;0.353781,0.0;0.481151,0.0;0.801472,0.0;0.579219,0.0;0.655010,0.0;0.463921,0.0;0.261296,0.0;0.587482,0.0;0.419750,0.0;0.501324,0.0;0.441113,0.0;0.852331,0.0;0.484976,0.0;0.611933,0.0;1.147494,0.0;1.025935,0.0;0.688225,0.0;0.701772,0.0;0.140512,0.0;0.090503,0.0;0.655843,0.0;0.663656,0.0;0.600072,0.0;0.490259,0.0;0.759983,0.0;0.640209,0.0;0.632818,0.0;0.557856,0.0;0.917662,0.0;0.570411,0.0;0.437639,0.0;0.700796,0.0;0.676898,0.0;0.500341,0.0;0.394373,0.0;0.336859,0.0;0.766491,0.0;0.673199,0.0;0.899505,0.0;0.975848,0.0;0.735558,0.0;0.964364,0.0;0.530227,0.0;0.817374,0.0;0.559588,0.0;0.946404,0.0;0.729985,0.0;0.213462,0.0;0.696040,0.0;0.708856,0.0;0.900701,0.0;0.617360,0.0;0.593782,0.0;0.695944,0.0;0.633210,0.0;0.898511,0.0;0.341572,0.0;0.511635,0.0;0.349388,0.0;0.917921,0.0;1.051753,0.0;0.706684,0.0;0.781818,0.0;</value>
						</Data>
					</ExtendedData>
					<gx:coord>98.767505 28.085522 3465.364680</gx:coord>
					<gx:coord>98.767587 28.085464 3465.251131</gx:coord>
					<gx:coord>98.767529 28.085390 3467.027334</gx:coord>
					<gx:coord>98.767502 28.085301 3468.614962</gx:coord>
					<gx:coord>98.767450 28.085218 3473.287214</gx:coord>
					<gx:coord>98.767429 28.085125 3474.533563</gx:coord>
					<gx:coord>98.767315 28.085127 3475.048471</gx:coord>
					<gx:coord>98.767214 28.085148 3474.122173</gx:coord>
					<gx:coord>98.767113 28.085125 3476.774309</gx:coord>
					<gx:coord>98.767010 28.085103 3477.552301</gx:coord>
					<gx:coord>98.766908 28.085076 3482.926511</gx:coord>
					<gx:coord>98.766845 28.085002 3484.871906</gx:coord>
					<gx:coord>98.766823 28.084911 3488.683256</gx:coord>
					<gx:coord>98.766802 28.084821 3493.709681</gx:coord>
					<gx:coord>98.766782 28.084731 3498.972446</gx:coord>
					<gx:coord>98.766734 28.084651 3499.935014</gx:coord>
					<gx:coord>98.766653 28.084590 3498.539010</gx:coord>
					<gx:coord>98.766580 28.084524 3497.518701</gx:coord>
					<gx:coord>98.766540 28.084441 3501.244295</gx:coord>
					<gx:coord>98.766544 28.084350 3507.523978</gx:coord>
					<gx:coord>98.766497 28.084268 3511.833706</gx:coord>
					<gx:coord>98.766427 28.084202 3514.189811</gx:coord>
					<gx:coord>98.766353 28.084267 3515.323496</gx:coord>
					<gx:coord>98.766285 28.084335 3516.538516</gx:coord>
					<gx:coord>98.766198 28.084385 3515.703894</gx:coord>
					<gx:coord>98.766139 28.084465 3519.336286</gx:coord>
					<gx:coord>98.766090 28.084549 3521.923087</gx:coord>
					<gx:coord>98.766044 28.084632 3526.250439</gx:coord>
					<gx:coord>98.765971 28.084696 3529.460320</gx:coord>
					<gx:coord>98.765924 28.084777 3534.040128</gx:coord>
					<gx:coord>98.765894 28.084870 3539.712745</gx:coord>
					<gx:coord>98.765847 28.084952 3541.105124</gx:coord>
					<gx:coord>98.765800 28.085034 3543.936902</gx:coord>
					<gx:coord>98.765766 28.085122 3545.244813</gx:coord>
					<gx:coord>98.765731 28.085210 3550.456788</gx:coord>
					<gx:coord>98.765721 28.085119 3555.752398</gx:coord>
					<gx:coord>98.765691 28.085030 3559.758872</gx:coord>
					<gx:coord>98.765613 28.084968 3558.008793</gx:coord>
					<gx:coord>98.765587 28.084879 3563.081199</gx:coord>
					<gx:coord>98.765573 28.084786 3566.678348</gx:coord>
					<gx:coord>98.765534 28.084698 3568.739549</gx:coord>
					<gx:coord>98.765482 28.084620 3569.933471</gx:coord>
					<gx:coord>98.765495 28.084526 3572.672863</gx:coord>
					<gx:coord>98.765506 28.084435 3576.873054</gx:coord>
					<gx:coord>98.765485 28.084344 3578.921751</gx:coord>
					<gx:coord>98.765395 28.084387 3582.690851</gx:coord>
					<gx:coord>98.765322 28.084453 3585.020870</gx:coord>
					<gx:coord>98.765265 28.084531 3591.833337</gx:coord>
					<gx:coord>98.765230 28.084618 3594.836698</gx:coord>
					<gx:coord>98.765203 28.084708 3594.643528</gx:coord>
					<gx:coord>98.765191 28.084802 3598.117594</gx:coord>
					<gx:coord>98.765173 28.084896 3602.735790</gx:coord>
					<gx:coord>98.765129 28.084984 3606.856785</gx:coord>
					<gx:coord>98.765081 28.084903 3613.430681</gx:coord>
					<gx:coord>98.765038 28.084821 3615.415687</gx:coord>
					<gx:coord>98.764985 28.084741 3613.757082</gx:coord>
					<gx:coord>98.764923 28.084666 3620.404401</gx:coord>
					<gx:coord>98.764889 28.084579 3627.169624</gx:coord>
					<gx:coord>98.764847 28.084496 3633.239640</gx:coord>
					<gx:coord>98.764863 28.084406 3638.688295</gx:coord>
					<gx:coord>98.764842 28.084315 3641.305233</gx:coord>
					<gx:coord>98.764827 28.084226 3643.600402</gx:coord>
					<gx:coord>98.764759 28.084152 3646.371020</gx:coord>
					<gx:coord>98.764712 28.084070 3650.758433</gx:coord>
					<gx:coord>98.764624 28.084022 3651.625864</gx:coord>
					<gx:coord>98.764535 28.083977 3655.091672</gx:coord>
					<gx:coord>98.764529 28.084068 3653.006849</gx:coord>
					<gx:coord>98.764497 28.084156 3653.473825</gx:coord>
					<gx:coord>98.764518 28.084245 3657.486205</gx:coord>
					<gx:coord>98.764506 28.084337 3657.523359</gx:coord>
					<gx:coord>98.764488 28.084428 3658.928802</gx:coord>
					<gx:coord>98.764460 28.084515 3661.966018</gx:coord>
					<gx:coord>98.764368 28.084473 3672.123617</gx:coord>
					<gx:coord>98.764350 28.084379 3673.275436</gx:coord>
					<gx:coord>98.764298 28.084297 3674.844337</gx:coord>
					<gx:coord>98.764246 28.084215 3679.678160</gx:coord>
					<gx:coord>98.764186 28.084137 3683.744284</gx:coord>
					<gx:coord>98.764124 28.084064 3685.480470</gx:coord>
					<gx:coord>98.764048 28.083999 3688.253967</gx:coord>
					<gx:coord>98.763964 28.083945 3693.014856</gx:coord>
					<gx:coord>98.763875 28.083884 3697.557259</gx:coord>
					<gx:coord>98.763787 28.083831 3699.537549</gx:coord>
					<gx:coord>98.763712 28.083759 3700.241075</gx:coord>
					<gx:coord>98.763641 28.083692 3701.407452</gx:coord>
					<gx:coord>98.763565 28.083632 3703.148412</gx:coord>
					<gx:coord>98.763494 28.083566 3703.197650</gx:coord>
					<gx:coord>98.763584 28.083524 3709.815233</gx:coord>
					<gx:coord>98.763652 28.083455 3710.794429</gx:coord>
					<gx:coord>98.763694 28.083370 3711.128791</gx:coord>
					<gx:coord>98.763718 28.083281 3710.385582</gx:coord>
					<gx:coord>98.763792 28.083216 3712.418297</gx:coord>
					<gx:coord>98.763809 28.083126 3713.148800</gx:coord>
					<gx:coord>98.763808 28.083030 3713.415570</gx:coord>
					<gx:coord>98.763808 28.082937 3716.012186</gx:coord>
					<gx:coord>98.763836 28.082847 3722.769008</gx:coord>
					<gx:coord>98.763843 28.082756 3723.401702</gx:coord>
					<gx:coord>98.763844 28.082663 3727.309805</gx:coord>
					<gx:coord>98.763859 28.082568 3730.554153</gx:coord>
					<gx:coord>98.763864 28.082474 3730.058863</gx:coord>
					<gx:coord>98.763857 28.082383 3733.476111</gx:coord>
					<gx:coord>98.763856 28.082291 3731.086162</gx:coord>
					<gx:coord>98.763839 28.082201 3732.227016</gx:coord>
					<gx:coord>98.763831 28.082109 3736.651162</gx:coord>
					<gx:coord>98.763836 28.082012 3737.243949</gx:coord>
					<gx:coord>98.763842 28.081918 3736.962849</gx:coord>
					<gx:coord>98.763840 28.081825 3736.619938</gx:coord>
					<gx:coord>98.763816 28.081734 3737.488669</gx:coord>
					<gx:coord>98.763833 28.081644 3740.889340</gx:coord>
					<gx:coord>98.763803 28.081545 3741.346212</gx:coord>
					<gx:coord>98.763790 28.081452 3741.542942</gx:coord>
					<gx:coord>98.763771 28.081362 3742.910417</gx:coord>
					<gx:coord>98.763736 28.081272 3744.040470</gx:coord>
					<gx:coord>98.763742 28.081181 3743.689493</gx:coord>
					<gx:coord>98.763708 28.081093 3744.900921</gx:coord>
					<gx:coord>98.763649 28.081013 3749.634235</gx:coord>
					<gx:coord>98.763620 28.080925 3750.462174</gx:coord>
					<gx:coord>98.763580 28.080839 3752.029794</gx:coord>
					<gx:coord>98.763572 28.080745 3753.503580</gx:coord>
					<gx:coord>98.763522 28.080663 3753.847256</gx:coord>
					<gx:coord>98.763478 28.080581 3752.950346</gx:coord>
					<gx:coord>98.763462 28.080491 3755.483591</gx:coord>
					<gx:coord>98.763427 28.080402 3756.927669</gx:coord>
					<gx:coord>98.763402 28.080313 3757.831386</gx:coord>
					<gx:coord>98.763378 28.080225 3760.146637</gx:coord>
					<gx:coord>98.763363 28.080130 3758.668935</gx:coord>
					<gx:coord>98.763330 28.080033 3759.132830</gx:coord>
					<gx:coord>98.763318 28.079940 3761.215141</gx:coord>
					<gx:coord>98.763296 28.079851 3763.662756</gx:coord>
					<gx:coord>98.763269 28.079761 3762.257851</gx:coord>
					<gx:coord>98.763223 28.079676 3762.505630</gx:coord>
					<gx:coord>98.763161 28.079602 3763.049169</gx:coord>
					<gx:coord>98.763142 28.079510 3762.011699</gx:coord>
					<gx:coord>98.763082 28.079434 3765.045335</gx:coord>
					<gx:coord>98.763048 28.079346 3767.454170</gx:coord>
					<gx:coord>98.763011 28.079256 3769.052448</gx:coord>
					<gx:coord>98.762960 28.079173 3770.250871</gx:coord>
					<gx:coord>98.762914 28.079092 3770.299311</gx:coord>
					<gx:coord>98.762866 28.079006 3773.020128</gx:coord>
					<gx:coord>98.762824 28.078920 3774.526236</gx:coord>
					<gx:coord>98.762797 28.078832 3776.143925</gx:coord>
					<gx:coord>98.762724 28.078760 3776.047815</gx:coord>
					<gx:coord>98.762658 28.078690 3779.714275</gx:coord>
					<gx:coord>98.762590 28.078622 3782.348820</gx:coord>
					<gx:coord>98.762548 28.078538 3785.665668</gx:coord>
					<gx:coord>98.762512 28.078452 3787.418296</gx:coord>
					<gx:coord>98.762472 28.078363 3788.503279</gx:coord>
					<gx:coord>98.762402 28.078293 3791.400365</gx:coord>
					<gx:coord>98.762322 28.078231 3796.426515</gx:coord>
					<gx:coord>98.762272 28.078150 3800.232824</gx:coord>
					<gx:coord>98.762241 28.078063 3801.805565</gx:coord>
					<gx:coord>98.762212 28.077969 3804.159869</gx:coord>
					<gx:coord>98.762162 28.077890 3807.696114</gx:coord>
					<gx:coord>98.762116 28.077809 3812.756727</gx:coord>
					<gx:coord>98.762035 28.077751 3812.698869</gx:coord>
					<gx:coord>98.762002 28.077664 3814.264806</gx:coord>
					<gx:coord>98.761998 28.077571 3816.974791</gx:coord>
					<gx:coord>98.761966 28.077484 3820.054230</gx:coord>
					<gx:coord>98.761930 28.077399 3823.965449</gx:coord>
					<gx:coord>98.761854 28.077337 3825.473772</gx:coord>
					<gx:coord>98.761813 28.077255 3828.486422</gx:coord>
					<gx:coord>98.761769 28.077168 3831.808815</gx:coord>
					<gx:coord>98.761728 28.077077 3834.644704</gx:coord>
					<gx:coord>98.761696 28.076991 3835.564305</gx:coord>
					<gx:coord>98.761629 28.076916 3835.869420</gx:coord>
					<gx:coord>98.761631 28.076823 3838.463943</gx:coord>
					<gx:coord>98.761591 28.076738 3839.018418</gx:coord>
					<gx:coord>98.761615 28.076650 3841.090933</gx:coord>
					<gx:coord>98.761583 28.076559 3842.446026</gx:coord>
					<gx:coord>98.761565 28.076466 3845.132661</gx:coord>
					<gx:coord>98.761545 28.076373 3848.035330</gx:coord>
					<gx:coord>98.761532 28.076280 3850.370071</gx:coord>
					<gx:coord>98.761497 28.076190 3852.928067</gx:coord>
					<gx:coord>98.761456 28.076104 3854.088475</gx:coord>
					<gx:coord>98.761441 28.076013 3855.260184</gx:coord>
					<gx:coord>98.761424 28.075921 3857.050657</gx:coord>
					<gx:coord>98.761433 28.075828 3860.991991</gx:coord>
					<gx:coord>98.761432 28.075736 3865.713898</gx:coord>
					<gx:coord>98.761403 28.075643 3866.143526</gx:coord>
					<gx:coord>98.761372 28.075554 3867.561577</gx:coord>
					<gx:coord>98.761396 28.075461 3869.121858</gx:coord>
					<gx:coord>98.761429 28.075372 3870.372654</gx:coord>
					<gx:coord>98.761397 28.075286 3870.178485</gx:coord>
					<gx:coord>98.761404 28.075190 3867.437627</gx:coord>
					<gx:coord>98.761396 28.075098 3869.064631</gx:coord>
					<gx:coord>98.761377 28.075004 3872.952410</gx:coord>
					<gx:coord>98.761363 28.074907 3872.365687</gx:coord>
					<gx:coord>98.761352 28.074818 3873.023311</gx:coord>
					<gx:coord>98.761327 28.074727 3874.072549</gx:coord>
					<gx:coord>98.761304 28.074634 3873.561815</gx:coord>
					<gx:coord>98.761277 28.074540 3873.337053</gx:coord>
					<gx:coord>98.761243 28.074453 3875.019076</gx:coord>
					<gx:coord>98.761206 28.074365 3876.888758</gx:coord>
					<gx:coord>98.761160 28.074279 3877.200967</gx:coord>
					<gx:coord>98.761121 28.074193 3879.451215</gx:coord>
					<gx:coord>98.761074 28.074110 3881.181296</gx:coord>
					<gx:coord>98.761028 28.074025 3882.503558</gx:coord>
					<gx:coord>98.760968 28.073946 3882.129893</gx:coord>
					<gx:coord>98.760912 28.073871 3882.465485</gx:coord>
					<gx:coord>98.760829 28.073808 3882.756065</gx:coord>
					<gx:coord>98.760775 28.073728 3882.891075</gx:coord>
					<gx:coord>98.760730 28.073646 3883.385999</gx:coord>
					<gx:coord>98.760675 28.073559 3883.746653</gx:coord>
					<gx:coord>98.760618 28.073477 3885.049263</gx:coord>
					<gx:coord>98.760560 28.073389 3886.291694</gx:coord>
					<gx:coord>98.760509 28.073306 3885.644494</gx:coord>
					<gx:coord>98.760449 28.073232 3886.041560</gx:coord>
					<gx:coord>98.760388 28.073157 3887.727293</gx:coord>
					<gx:coord>98.760301 28.073105 3887.973463</gx:coord>
					<gx:coord>98.760223 28.073045 3888.951193</gx:coord>
					<gx:coord>98.760158 28.072972 3888.944708</gx:coord>
					<gx:coord>98.760049 28.072985 3889.580922</gx:coord>
					<gx:coord>98.759939 28.072978 3889.662223</gx:coord>
					<gx:coord>98.759837 28.072997 3889.141644</gx:coord>
					<gx:coord>98.759747 28.073056 3889.029185</gx:coord>
					<gx:coord>98.759665 28.073113 3888.996150</gx:coord>
					<gx:coord>98.759595 28.073186 3887.591274</gx:coord>
					<gx:coord>98.759542 28.073266 3887.427205</gx:coord>
					<gx:coord>98.759492 28.073354 3885.819558</gx:coord>
					<gx:coord>98.759438 28.073453 3885.428945</gx:coord>
					<gx:coord>98.759366 28.073524 3885.473161</gx:coord>
					<gx:coord>98.759342 28.073617 3886.249765</gx:coord>
					<gx:coord>98.759286 28.073693 3886.009885</gx:coord>
					<gx:coord>98.759236 28.073775 3886.017860</gx:coord>
					<gx:coord>98.759183 28.073852 3884.694579</gx:coord>
					<gx:coord>98.759128 28.073929 3883.049930</gx:coord>
					<gx:coord>98.759081 28.074012 3882.189305</gx:coord>
					<gx:coord>98.758999 28.074081 3880.193716</gx:coord>
					<gx:coord>98.758938 28.074155 3878.506050</gx:coord>
					<gx:coord>98.758867 28.074221 3877.447422</gx:coord>
					<gx:coord>98.758782 28.074278 3877.024909</gx:coord>
					<gx:coord>98.758704 28.074343 3878.399172</gx:coord>
					<gx:coord>98.758624 28.074410 3877.713405</gx:coord>
					<gx:coord>98.758549 28.074474 3876.868986</gx:coord>
					<gx:coord>98.758455 28.074529 3875.930059</gx:coord>
					<gx:coord>98.758371 28.074583 3875.600123</gx:coord>
					<gx:coord>98.758274 28.074624 3875.577118</gx:coord>
					<gx:coord>98.758185 28.074675 3875.366521</gx:coord>
					<gx:coord>98.758093 28.074729 3875.039047</gx:coord>
					<gx:coord>98.758002 28.074783 3874.568776</gx:coord>
					<gx:coord>98.757917 28.074834 3874.484654</gx:coord>
					<gx:coord>98.757832 28.074894 3874.345937</gx:coord>
					<gx:coord>98.757743 28.074948 3874.404187</gx:coord>
					<gx:coord>98.757670 28.075020 3872.739369</gx:coord>
					<gx:coord>98.757586 28.075078 3871.627550</gx:coord>
					<gx:coord>98.757483 28.075111 3871.566996</gx:coord>
					<gx:coord>98.757385 28.075136 3870.124759</gx:coord>
					<gx:coord>98.757330 28.075060 3869.899472</gx:coord>
					<gx:coord>98.757289 28.075157 3870.476989</gx:coord>
					<gx:coord>98.757195 28.075206 3868.512768</gx:coord>
					<gx:coord>98.757106 28.075252 3868.104527</gx:coord>
					<gx:coord>98.757056 28.075163 3867.217568</gx:coord>
					<gx:coord>98.757079 28.075075 3868.219991</gx:coord>
					<gx:coord>98.757134 28.074994 3859.971866</gx:coord>
					<gx:coord>98.757027 28.075005 3864.832554</gx:coord>
					<gx:coord>98.757126 28.074984 3862.423377</gx:coord>
					<gx:coord>98.757037 28.075045 3868.423529</gx:coord>
					<gx:coord>98.757109 28.074975 3860.499312</gx:coord>
					<gx:coord>98.757019 28.075020 3859.870087</gx:coord>
					<gx:coord>98.757064 28.074938 3859.846748</gx:coord>
					<gx:coord>98.756995 28.075017 3864.954595</gx:coord>
					<gx:coord>98.757097 28.074985 3860.510260</gx:coord>
					<gx:coord>98.756948 28.075150 3862.344891</gx:coord>
					<gx:coord>98.757025 28.075064 3865.857479</gx:coord>
					<gx:coord>98.757087 28.074993 3863.621258</gx:coord>
					<gx:coord>98.757193 28.074963 3860.386801</gx:coord>
					<gx:coord>98.757094 28.074999 3861.800793</gx:coord>
					<gx:coord>98.757026 28.075065 3862.239048</gx:coord>
					<gx:coord>98.757046 28.075161 3863.029426</gx:coord>
					<gx:coord>98.757117 28.075230 3865.771413</gx:coord>
					<gx:coord>98.757156 28.075314 3866.712806</gx:coord>
					<gx:coord>98.757251 28.075353 3872.091107</gx:coord>
					<gx:coord>98.757268 28.075449 3875.627602</gx:coord>
					<gx:coord>98.757293 28.075539 3876.493054</gx:coord>
					<gx:coord>98.757300 28.075636 3878.349836</gx:coord>
					<gx:coord>98.757306 28.075728 3880.712751</gx:coord>
					<gx:coord>98.757276 28.075821 3882.724837</gx:coord>
					<gx:coord>98.757269 28.075912 3884.080565</gx:coord>
					<gx:coord>98.757251 28.076008 3887.242511</gx:coord>
					<gx:coord>98.757228 28.076106 3886.215003</gx:coord>
					<gx:coord>98.757212 28.076198 3888.135056</gx:coord>
					<gx:coord>98.757201 28.076294 3887.431852</gx:coord>
					<gx:coord>98.757205 28.076387 3888.232680</gx:coord>
					<gx:coord>98.757192 28.076482 3889.197179</gx:coord>
					<gx:coord>98.757197 28.076579 3890.885218</gx:coord>
					<gx:coord>98.757197 28.076679 3892.411433</gx:coord>
					<gx:coord>98.757175 28.076768 3893.310293</gx:coord>
					<gx:coord>98.757202 28.076855 3893.851388</gx:coord>
					<gx:coord>98.757214 28.076947 3894.590972</gx:coord>
					<gx:coord>98.757231 28.077038 3895.544511</gx:coord>
					<gx:coord>98.757254 28.077130 3898.069939</gx:coord>
					<gx:coord>98.757281 28.077218 3899.450037</gx:coord>
					<gx:coord>98.757317 28.077309 3900.725452</gx:coord>
					<gx:coord>98.757392 28.077372 3901.391802</gx:coord>
					<gx:coord>98.757472 28.077435 3903.839200</gx:coord>
					<gx:coord>98.757559 28.077494 3907.169238</gx:coord>
					<gx:coord>98.757556 28.077589 3909.271659</gx:coord>
					<gx:coord>98.757572 28.077679 3911.318196</gx:coord>
					<gx:coord>98.757573 28.077772 3911.200268</gx:coord>
					<gx:coord>98.757603 28.077863 3914.041426</gx:coord>
					<gx:coord>98.757618 28.077956 3917.236061</gx:coord>
					<gx:coord>98.757609 28.078047 3918.417063</gx:coord>
					<gx:coord>98.757635 28.078135 3921.412942</gx:coord>
					<gx:coord>98.757645 28.078227 3922.673701</gx:coord>
					<gx:coord>98.757732 28.078276 3925.330712</gx:coord>
					<gx:coord>98.757752 28.078367 3927.254794</gx:coord>
					<gx:coord>98.757806 28.078451 3928.719027</gx:coord>
					<gx:coord>98.757805 28.078546 3930.188489</gx:coord>
					<gx:coord>98.757861 28.078622 3931.302641</gx:coord>
					<gx:coord>98.757904 28.078706 3933.747378</gx:coord>
					<gx:coord>98.757940 28.078796 3933.490371</gx:coord>
					<gx:coord>98.758017 28.078861 3937.720575</gx:coord>
					<gx:coord>98.758034 28.078961 3938.588077</gx:coord>
					<gx:coord>98.758087 28.079045 3938.214852</gx:coord>
					<gx:coord>98.758113 28.079138 3939.235551</gx:coord>
					<gx:coord>98.758164 28.079217 3941.060889</gx:coord>
					<gx:coord>98.758230 28.079287 3943.821456</gx:coord>
					<gx:coord>98.758294 28.079358 3944.481298</gx:coord>
					<gx:coord>98.758320 28.079447 3947.241162</gx:coord>
					<gx:coord>98.758296 28.079538 3946.804495</gx:coord>
					<gx:coord>98.758266 28.079630 3947.699944</gx:coord>
					<gx:coord>98.758239 28.079721 3948.071842</gx:coord>
					<gx:coord>98.758188 28.079805 3947.307456</gx:coord>
					<gx:coord>98.758150 28.079896 3949.854100</gx:coord>
					<gx:coord>98.758125 28.079983 3950.677476</gx:coord>
					<gx:coord>98.758111 28.080077 3951.558817</gx:coord>
					<gx:coord>98.758151 28.080169 3953.278117</gx:coord>
					<gx:coord>98.758200 28.080250 3954.139975</gx:coord>
					<gx:coord>98.758246 28.080331 3955.349637</gx:coord>
					<gx:coord>98.758278 28.080418 3957.376135</gx:coord>
					<gx:coord>98.758285 28.080513 3959.032748</gx:coord>
					<gx:coord>98.758293 28.080606 3958.731494</gx:coord>
					<gx:coord>98.758263 28.080696 3957.051845</gx:coord>
					<gx:coord>98.758180 28.080755 3957.948228</gx:coord>
					<gx:coord>98.758097 28.080820 3957.793094</gx:coord>
					<gx:coord>98.758049 28.080900 3958.555127</gx:coord>
					<gx:coord>98.757998 28.080983 3960.392687</gx:coord>
					<gx:coord>98.757942 28.081061 3959.887905</gx:coord>
					<gx:coord>98.757958 28.081150 3961.692480</gx:coord>
					<gx:coord>98.757940 28.081240 3960.962797</gx:coord>
					<gx:coord>98.757939 28.081341 3961.407639</gx:coord>
					<gx:coord>98.757944 28.081435 3959.882359</gx:coord>
					<gx:coord>98.757944 28.081531 3959.079415</gx:coord>
					<gx:coord>98.757930 28.081622 3957.871972</gx:coord>
					<gx:coord>98.757913 28.081711 3958.221362</gx:coord>
					<gx:coord>98.757886 28.081799 3957.653042</gx:coord>
					<gx:coord>98.757884 28.081897 3956.770164</gx:coord>
					<gx:coord>98.757890 28.081988 3957.029129</gx:coord>
					<gx:coord>98.757895 28.082080 3954.319691</gx:coord>
					<gx:coord>98.757862 28.082170 3953.015730</gx:coord>
					<gx:coord>98.757828 28.082257 3952.222468</gx:coord>
					<gx:coord>98.757778 28.082343 3950.173984</gx:coord>
					<gx:coord>98.757731 28.082429 3949.357648</gx:coord>
					<gx:coord>98.757689 28.082516 3949.170008</gx:coord>
					<gx:coord>98.757684 28.082608 3950.047408</gx:coord>
					<gx:coord>98.757690 28.082707 3947.137354</gx:coord>
					<gx:coord>98.757731 28.082797 3949.845445</gx:coord>
					<gx:coord>98.757827 28.082842 3949.701681</gx:coord>
					<gx:coord>98.757930 28.082848 3953.022619</gx:coord>
					<gx:coord>98.757887 28.082930 3952.485149</gx:coord>
					<gx:coord>98.757839 28.083018 3952.457672</gx:coord>
					<gx:coord>98.757786 28.083097 3954.302590</gx:coord>
					<gx:coord>98.757704 28.083154 3952.627961</gx:coord>
					<gx:coord>98.757629 28.083223 3952.776964</gx:coord>
					<gx:coord>98.757542 28.083277 3949.925089</gx:coord>
					<gx:coord>98.757441 28.083260 3947.587281</gx:coord>
					<gx:coord>98.757339 28.083254 3949.375214</gx:coord>
					<gx:coord>98.757243 28.083212 3953.216852</gx:coord>
					<gx:coord>98.757135 28.083200 3952.177489</gx:coord>
					<gx:coord>98.757047 28.083258 3951.691174</gx:coord>
					<gx:coord>98.757009 28.083349 3952.327871</gx:coord>
					<gx:coord>98.757003 28.083448 3951.530227</gx:coord>
					<gx:coord>98.757013 28.083540 3951.714804</gx:coord>
					<gx:coord>98.757037 28.083638 3952.411684</gx:coord>
					<gx:coord>98.757019 28.083733 3952.371670</gx:coord>
					<gx:coord>98.756975 28.083814 3952.598337</gx:coord>
					<gx:coord>98.756934 28.083906 3953.511899</gx:coord>
					<gx:coord>98.756885 28.083994 3956.246022</gx:coord>
					<gx:coord>98.756841 28.084077 3957.847414</gx:coord>
					<gx:coord>98.756790 28.084163 3960.737966</gx:coord>
					<gx:coord>98.756732 28.084239 3960.063230</gx:coord>
					<gx:coord>98.756673 28.084314 3959.739452</gx:coord>
					<gx:coord>98.756612 28.084390 3956.481672</gx:coord>
					<gx:coord>98.756547 28.084460 3954.736666</gx:coord>
					<gx:coord>98.756480 28.084538 3953.469986</gx:coord>
					<gx:coord>98.756415 28.084612 3950.999918</gx:coord>
					<gx:coord>98.756334 28.084682 3950.330216</gx:coord>
					<gx:coord>98.756257 28.084744 3950.128942</gx:coord>
					<gx:coord>98.756173 28.084809 3949.598737</gx:coord>
					<gx:coord>98.756110 28.084880 3949.306403</gx:coord>
					<gx:coord>98.756057 28.084963 3949.001666</gx:coord>
					<gx:coord>98.755998 28.085043 3950.235381</gx:coord>
					<gx:coord>98.755948 28.085130 3954.935237</gx:coord>
					<gx:coord>98.755874 28.085194 3955.722352</gx:coord>
					<gx:coord>98.755805 28.085264 3956.248697</gx:coord>
					<gx:coord>98.755749 28.085342 3957.178298</gx:coord>
					<gx:coord>98.755675 28.085405 3958.601941</gx:coord>
					<gx:coord>98.755602 28.085469 3959.336438</gx:coord>
					<gx:coord>98.755566 28.085556 3960.242087</gx:coord>
					<gx:coord>98.755503 28.085632 3959.485571</gx:coord>
					<gx:coord>98.755412 28.085687 3960.074496</gx:coord>
					<gx:coord>98.755345 28.085759 3959.081517</gx:coord>
					<gx:coord>98.755308 28.085846 3959.059928</gx:coord>
					<gx:coord>98.755293 28.085941 3959.771073</gx:coord>
					<gx:coord>98.755257 28.086032 3959.260944</gx:coord>
					<gx:coord>98.755196 28.086107 3956.098408</gx:coord>
					<gx:coord>98.755156 28.086197 3955.362136</gx:coord>
					<gx:coord>98.755121 28.086282 3955.202884</gx:coord>
					<gx:coord>98.755059 28.086360 3954.779172</gx:coord>
					<gx:coord>98.755028 28.086455 3955.579503</gx:coord>
					<gx:coord>98.755012 28.086546 3957.308729</gx:coord>
					<gx:coord>98.754959 28.086630 3957.552971</gx:coord>
					<gx:coord>98.755016 28.086707 3959.614110</gx:coord>
					<gx:coord>98.755049 28.086801 3958.801031</gx:coord>
					<gx:coord>98.754953 28.086843 3963.189680</gx:coord>
					<gx:coord>98.754870 28.086786 3961.996296</gx:coord>
					<gx:coord>98.754843 28.086698 3957.424389</gx:coord>
					<gx:coord>98.754843 28.086791 3962.177447</gx:coord>
					<gx:coord>98.754795 28.086873 3959.507877</gx:coord>
					<gx:coord>98.754693 28.086867 3965.251194</gx:coord>
					<gx:coord>98.754629 28.086791 3969.677897</gx:coord>
					<gx:coord>98.754595 28.086706 3969.349088</gx:coord>
					<gx:coord>98.754551 28.086616 3967.545254</gx:coord>
					<gx:coord>98.754466 28.086558 3968.182569</gx:coord>
					<gx:coord>98.754359 28.086522 3967.144939</gx:coord>
					<gx:coord>98.754287 28.086446 3965.625527</gx:coord>
					<gx:coord>98.754218 28.086371 3964.876612</gx:coord>
					<gx:coord>98.754125 28.086318 3963.980988</gx:coord>
					<gx:coord>98.754028 28.086264 3963.336800</gx:coord>
					<gx:coord>98.753941 28.086213 3961.675867</gx:coord>
					<gx:coord>98.753855 28.086142 3960.476630</gx:coord>
					<gx:coord>98.753782 28.086067 3958.143415</gx:coord>
					<gx:coord>98.753719 28.085995 3956.446743</gx:coord>
					<gx:coord>98.753682 28.085901 3954.727580</gx:coord>
					<gx:coord>98.753715 28.085806 3954.540033</gx:coord>
					<gx:coord>98.753792 28.085732 3954.492447</gx:coord>
					<gx:coord>98.753839 28.085651 3954.725790</gx:coord>
					<gx:coord>98.753918 28.085585 3952.399361</gx:coord>
					<gx:coord>98.753997 28.085521 3952.717981</gx:coord>
					<gx:coord>98.754082 28.085464 3953.425298</gx:coord>
					<gx:coord>98.754174 28.085412 3950.321400</gx:coord>
					<gx:coord>98.754272 28.085378 3950.718429</gx:coord>
					<gx:coord>98.754364 28.085314 3952.138274</gx:coord>
					<gx:coord>98.754442 28.085252 3949.188815</gx:coord>
					<gx:coord>98.754526 28.085180 3950.070139</gx:coord>
					<gx:coord>98.754588 28.085098 3950.268111</gx:coord>
					<gx:coord>98.754647 28.085011 3951.098393</gx:coord>
					<gx:coord>98.754703 28.084928 3951.246800</gx:coord>
					<gx:coord>98.754749 28.084848 3951.091235</gx:coord>
					<gx:coord>98.754799 28.084760 3950.094918</gx:coord>
					<gx:coord>98.754855 28.084682 3949.939824</gx:coord>
					<gx:coord>98.754905 28.084601 3950.387137</gx:coord>
					<gx:coord>98.754964 28.084522 3951.449783</gx:coord>
					<gx:coord>98.755018 28.084438 3951.476573</gx:coord>
					<gx:coord>98.755087 28.084370 3952.519157</gx:coord>
					<gx:coord>98.755161 28.084307 3953.158299</gx:coord>
					<gx:coord>98.755232 28.084238 3952.393217</gx:coord>
					<gx:coord>98.755294 28.084160 3952.579508</gx:coord>
					<gx:coord>98.755342 28.084071 3953.943051</gx:coord>
					<gx:coord>98.755373 28.083978 3953.286298</gx:coord>
					<gx:coord>98.755412 28.083891 3954.059259</gx:coord>
					<gx:coord>98.755421 28.083799 3954.574416</gx:coord>
					<gx:coord>98.755409 28.083702 3953.659515</gx:coord>
					<gx:coord>98.755384 28.083600 3952.644021</gx:coord>
					<gx:coord>98.755362 28.083508 3952.595530</gx:coord>
					<gx:coord>98.755336 28.083416 3952.846249</gx:coord>
					<gx:coord>98.755332 28.083322 3952.363288</gx:coord>
					<gx:coord>98.755370 28.083236 3950.608174</gx:coord>
					<gx:coord>98.755399 28.083147 3950.786279</gx:coord>
					<gx:coord>98.755439 28.083060 3950.673067</gx:coord>
					<gx:coord>98.755464 28.082967 3949.605599</gx:coord>
					<gx:coord>98.755502 28.082874 3948.643046</gx:coord>
					<gx:coord>98.755508 28.082777 3949.606280</gx:coord>
					<gx:coord>98.755508 28.082682 3948.813837</gx:coord>
					<gx:coord>98.755524 28.082589 3947.799903</gx:coord>
					<gx:coord>98.755552 28.082494 3947.762177</gx:coord>
					<gx:coord>98.755579 28.082406 3948.384996</gx:coord>
					<gx:coord>98.755633 28.082318 3949.078376</gx:coord>
					<gx:coord>98.755660 28.082225 3947.521703</gx:coord>
					<gx:coord>98.755691 28.082135 3946.662956</gx:coord>
					<gx:coord>98.755711 28.082038 3946.418347</gx:coord>
					<gx:coord>98.755727 28.081946 3945.884836</gx:coord>
					<gx:coord>98.755733 28.081854 3945.535500</gx:coord>
					<gx:coord>98.755750 28.081760 3945.052180</gx:coord>
					<gx:coord>98.755768 28.081669 3945.318215</gx:coord>
					<gx:coord>98.755769 28.081577 3944.307212</gx:coord>
					<gx:coord>98.755767 28.081475 3943.923480</gx:coord>
					<gx:coord>98.755780 28.081378 3943.070003</gx:coord>
					<gx:coord>98.755788 28.081282 3942.781313</gx:coord>
					<gx:coord>98.755804 28.081182 3942.864788</gx:coord>
					<gx:coord>98.755819 28.081087 3941.500161</gx:coord>
					<gx:coord>98.755822 28.080997 3941.535358</gx:coord>
					<gx:coord>98.755840 28.080902 3942.094730</gx:coord>
					<gx:coord>98.755860 28.080814 3942.349415</gx:coord>
					<gx:coord>98.755878 28.080719 3942.772718</gx:coord>
					<gx:coord>98.755897 28.080624 3943.592214</gx:coord>
					<gx:coord>98.755918 28.080535 3944.619389</gx:coord>
					<gx:coord>98.755931 28.080439 3944.304196</gx:coord>
					<gx:coord>98.755904 28.080344 3943.267826</gx:coord>
					<gx:coord>98.755890 28.080250 3942.714116</gx:coord>
					<gx:coord>98.755878 28.080159 3942.450261</gx:coord>
					<gx:coord>98.755865 28.080063 3941.803892</gx:coord>
					<gx:coord>98.755852 28.079972 3941.546744</gx:coord>
					<gx:coord>98.755838 28.079873 3940.217676</gx:coord>
					<gx:coord>98.755796 28.079791 3939.043113</gx:coord>
					<gx:coord>98.755753 28.079707 3937.406693</gx:coord>
					<gx:coord>98.755721 28.079617 3937.206083</gx:coord>
					<gx:coord>98.755665 28.079531 3934.331005</gx:coord>
					<gx:coord>98.755619 28.079443 3932.567984</gx:coord>
					<gx:coord>98.755597 28.079351 3931.588599</gx:coord>
					<gx:coord>98.755594 28.079251 3930.963996</gx:coord>
					<gx:coord>98.755588 28.079156 3929.739557</gx:coord>
					<gx:coord>98.755589 28.079059 3929.816203</gx:coord>
					<gx:coord>98.755558 28.078972 3930.163343</gx:coord>
					<gx:coord>98.755520 28.078882 3929.305790</gx:coord>
					<gx:coord>98.755467 28.078799 3925.864933</gx:coord>
					<gx:coord>98.755458 28.078706 3923.935209</gx:coord>
					<gx:coord>98.755493 28.078617 3924.002138</gx:coord>
					<gx:coord>98.755551 28.078528 3923.738109</gx:coord>
					<gx:coord>98.755625 28.078462 3924.062019</gx:coord>
					<gx:coord>98.755722 28.078418 3923.965603</gx:coord>
					<gx:coord>98.755824 28.078396 3924.574600</gx:coord>
					<gx:coord>98.755924 28.078361 3924.617117</gx:coord>
					<gx:coord>98.756007 28.078309 3922.923306</gx:coord>
					<gx:coord>98.756074 28.078237 3921.803621</gx:coord>
					<gx:coord>98.756134 28.078157 3920.384197</gx:coord>
					<gx:coord>98.756183 28.078072 3919.193393</gx:coord>
					<gx:coord>98.756249 28.077990 3918.061688</gx:coord>
					<gx:coord>98.756325 28.077921 3916.052376</gx:coord>
					<gx:coord>98.756397 28.077849 3914.801297</gx:coord>
					<gx:coord>98.756481 28.077789 3915.219698</gx:coord>
					<gx:coord>98.756564 28.077730 3916.767383</gx:coord>
					<gx:coord>98.756669 28.077686 3915.685566</gx:coord>
					<gx:coord>98.756771 28.077645 3914.858654</gx:coord>
					<gx:coord>98.756864 28.077599 3914.064680</gx:coord>
					<gx:coord>98.756967 28.077563 3913.050166</gx:coord>
					<gx:coord>98.757071 28.077568 3911.160878</gx:coord>
					<gx:coord>98.757172 28.077579 3911.956643</gx:coord>
					<gx:coord>98.757259 28.077527 3910.436395</gx:coord>
					<gx:coord>98.757323 28.077450 3908.267991</gx:coord>
					<gx:coord>98.757285 28.077363 3907.171506</gx:coord>
					<gx:coord>98.757255 28.077268 3905.228553</gx:coord>
					<gx:coord>98.757226 28.077175 3903.817899</gx:coord>
					<gx:coord>98.757207 28.077077 3903.569320</gx:coord>
					<gx:coord>98.757204 28.076985 3902.082289</gx:coord>
					<gx:coord>98.757191 28.076885 3900.153747</gx:coord>
					<gx:coord>98.757194 28.076784 3898.669535</gx:coord>
					<gx:coord>98.757191 28.076686 3898.268703</gx:coord>
					<gx:coord>98.757190 28.076592 3897.734426</gx:coord>
					<gx:coord>98.757198 28.076501 3895.325525</gx:coord>
					<gx:coord>98.757220 28.076407 3893.477832</gx:coord>
					<gx:coord>98.757236 28.076306 3893.191113</gx:coord>
					<gx:coord>98.757238 28.076215 3892.265805</gx:coord>
					<gx:coord>98.757239 28.076119 3890.249305</gx:coord>
					<gx:coord>98.757254 28.076027 3889.597350</gx:coord>
					<gx:coord>98.757277 28.075939 3889.417638</gx:coord>
					<gx:coord>98.757293 28.075850 3887.297006</gx:coord>
					<gx:coord>98.757308 28.075752 3886.525463</gx:coord>
					<gx:coord>98.757316 28.075657 3885.228502</gx:coord>
					<gx:coord>98.757344 28.075565 3883.976601</gx:coord>
					<gx:coord>98.757378 28.075477 3882.358860</gx:coord>
					<gx:coord>98.757445 28.075407 3880.607390</gx:coord>
					<gx:coord>98.757511 28.075328 3879.153845</gx:coord>
					<gx:coord>98.757559 28.075242 3877.981557</gx:coord>
					<gx:coord>98.757606 28.075156 3876.523310</gx:coord>
					<gx:coord>98.757660 28.075073 3875.803408</gx:coord>
					<gx:coord>98.757694 28.074985 3874.730139</gx:coord>
					<gx:coord>98.757795 28.074954 3872.818959</gx:coord>
					<gx:coord>98.757885 28.074908 3874.864311</gx:coord>
					<gx:coord>98.757969 28.074853 3875.473850</gx:coord>
					<gx:coord>98.758051 28.074797 3875.640236</gx:coord>
					<gx:coord>98.758146 28.074750 3876.445332</gx:coord>
					<gx:coord>98.758225 28.074685 3876.126058</gx:coord>
					<gx:coord>98.758311 28.074637 3876.861887</gx:coord>
					<gx:coord>98.758401 28.074591 3876.811258</gx:coord>
					<gx:coord>98.758486 28.074534 3876.402625</gx:coord>
					<gx:coord>98.758573 28.074476 3876.717036</gx:coord>
					<gx:coord>98.758655 28.074420 3877.285795</gx:coord>
					<gx:coord>98.758736 28.074360 3877.166359</gx:coord>
					<gx:coord>98.758815 28.074295 3878.534452</gx:coord>
					<gx:coord>98.758894 28.074230 3878.240997</gx:coord>
					<gx:coord>98.758959 28.074159 3879.258111</gx:coord>
					<gx:coord>98.759025 28.074081 3879.749737</gx:coord>
					<gx:coord>98.759079 28.074003 3880.295726</gx:coord>
					<gx:coord>98.759138 28.073924 3879.775245</gx:coord>
					<gx:coord>98.759188 28.073843 3880.198329</gx:coord>
					<gx:coord>98.759244 28.073759 3881.696891</gx:coord>
					<gx:coord>98.759297 28.073674 3882.715933</gx:coord>
					<gx:coord>98.759348 28.073592 3883.874264</gx:coord>
					<gx:coord>98.759399 28.073512 3885.168508</gx:coord>
					<gx:coord>98.759454 28.073436 3885.520973</gx:coord>
					<gx:coord>98.759505 28.073352 3885.267534</gx:coord>
					<gx:coord>98.759557 28.073273 3886.281246</gx:coord>
					<gx:coord>98.759618 28.073200 3887.577834</gx:coord>
					<gx:coord>98.759668 28.073115 3889.191211</gx:coord>
					<gx:coord>98.759749 28.073056 3890.185798</gx:coord>
					<gx:coord>98.759843 28.073014 3890.573738</gx:coord>
					<gx:coord>98.759940 28.072973 3890.248424</gx:coord>
					<gx:coord>98.760048 28.072955 3889.597267</gx:coord>
					<gx:coord>98.760150 28.072937 3889.821143</gx:coord>
					<gx:coord>98.760239 28.072993 3888.666031</gx:coord>
					<gx:coord>98.760336 28.073037 3890.464008</gx:coord>
					<gx:coord>98.760397 28.073112 3890.050249</gx:coord>
					<gx:coord>98.760452 28.073196 3887.155612</gx:coord>
					<gx:coord>98.760547 28.073236 3887.960676</gx:coord>
					<gx:coord>98.760593 28.073321 3886.215659</gx:coord>
					<gx:coord>98.760642 28.073402 3885.612064</gx:coord>
					<gx:coord>98.760695 28.073486 3884.775464</gx:coord>
					<gx:coord>98.760747 28.073565 3883.938681</gx:coord>
					<gx:coord>98.760800 28.073645 3882.945211</gx:coord>
					<gx:coord>98.760840 28.073733 3882.923239</gx:coord>
					<gx:coord>98.760897 28.073809 3881.421201</gx:coord>
					<gx:coord>98.760960 28.073900 3881.264875</gx:coord>
					<gx:coord>98.761020 28.073987 3880.708943</gx:coord>
					<gx:coord>98.761070 28.074070 3880.275420</gx:coord>
					<gx:coord>98.761119 28.074152 3879.191635</gx:coord>
					<gx:coord>98.761167 28.074239 3878.576454</gx:coord>
					<gx:coord>98.761213 28.074323 3877.646759</gx:coord>
					<gx:coord>98.761254 28.074409 3876.425672</gx:coord>
					<gx:coord>98.761302 28.074497 3875.988462</gx:coord>
					<gx:coord>98.761311 28.074594 3874.283249</gx:coord>
					<gx:coord>98.761348 28.074689 3873.160513</gx:coord>
					<gx:coord>98.761367 28.074778 3872.998486</gx:coord>
					<gx:coord>98.761382 28.074868 3872.005483</gx:coord>
					<gx:coord>98.761396 28.074961 3871.832822</gx:coord>
					<gx:coord>98.761411 28.075057 3871.956169</gx:coord>
					<gx:coord>98.761418 28.075157 3870.778702</gx:coord>
					<gx:coord>98.761416 28.075260 3870.372396</gx:coord>
					<gx:coord>98.761406 28.075351 3869.295928</gx:coord>
					<gx:coord>98.761405 28.075455 3869.087393</gx:coord>
					<gx:coord>98.761399 28.075547 3868.575069</gx:coord>
					<gx:coord>98.761405 28.075643 3869.903893</gx:coord>
					<gx:coord>98.761454 28.075729 3865.939235</gx:coord>
					<gx:coord>98.761473 28.075820 3861.699072</gx:coord>
					<gx:coord>98.761473 28.075920 3858.850698</gx:coord>
					<gx:coord>98.761574 28.075941 3858.762944</gx:coord>
					<gx:coord>98.761480 28.075981 3858.988099</gx:coord>
					<gx:coord>98.761494 28.076075 3857.889473</gx:coord>
					<gx:coord>98.761490 28.076167 3856.303077</gx:coord>
					<gx:coord>98.761534 28.076253 3851.825286</gx:coord>
					<gx:coord>98.761560 28.076351 3848.820780</gx:coord>
					<gx:coord>98.761578 28.076443 3847.715094</gx:coord>
					<gx:coord>98.761596 28.076540 3846.297114</gx:coord>
					<gx:coord>98.761630 28.076637 3845.437436</gx:coord>
					<gx:coord>98.761615 28.076734 3844.504483</gx:coord>
					<gx:coord>98.761647 28.076827 3842.546669</gx:coord>
					<gx:coord>98.761654 28.076918 3839.990090</gx:coord>
					<gx:coord>98.761716 28.076996 3840.790796</gx:coord>
					<gx:coord>98.761765 28.077081 3838.748816</gx:coord>
					<gx:coord>98.761785 28.077172 3834.624961</gx:coord>
					<gx:coord>98.761828 28.077259 3831.968337</gx:coord>
					<gx:coord>98.761885 28.077334 3830.649299</gx:coord>
					<gx:coord>98.761961 28.077407 3825.969944</gx:coord>
					<gx:coord>98.761995 28.077494 3826.360731</gx:coord>
					<gx:coord>98.761990 28.077586 3821.715881</gx:coord>
					<gx:coord>98.762020 28.077676 3817.962199</gx:coord>
					<gx:coord>98.762080 28.077757 3816.450915</gx:coord>
					<gx:coord>98.762163 28.077820 3814.376650</gx:coord>
					<gx:coord>98.762215 28.077911 3810.038520</gx:coord>
					<gx:coord>98.762239 28.078001 3805.812377</gx:coord>
					<gx:coord>98.762276 28.078085 3806.145790</gx:coord>
					<gx:coord>98.762304 28.078181 3805.563336</gx:coord>
					<gx:coord>98.762354 28.078261 3802.901481</gx:coord>
					<gx:coord>98.762435 28.078318 3799.193489</gx:coord>
					<gx:coord>98.762505 28.078390 3796.285681</gx:coord>
					<gx:coord>98.762541 28.078481 3788.840844</gx:coord>
					<gx:coord>98.762579 28.078570 3787.557341</gx:coord>
					<gx:coord>98.762644 28.078642 3786.967472</gx:coord>
					<gx:coord>98.762709 28.078719 3784.479040</gx:coord>
					<gx:coord>98.762786 28.078782 3779.986489</gx:coord>
					<gx:coord>98.762835 28.078865 3776.701570</gx:coord>
					<gx:coord>98.762857 28.078953 3773.736964</gx:coord>
					<gx:coord>98.762909 28.079041 3773.729125</gx:coord>
					<gx:coord>98.762962 28.079121 3772.859853</gx:coord>
					<gx:coord>98.762994 28.079215 3770.617694</gx:coord>
					<gx:coord>98.763041 28.079305 3769.656121</gx:coord>
					<gx:coord>98.763067 28.079393 3770.131785</gx:coord>
					<gx:coord>98.763119 28.079478 3768.147810</gx:coord>
					<gx:coord>98.763166 28.079560 3765.541029</gx:coord>
					<gx:coord>98.763232 28.079644 3764.283100</gx:coord>
					<gx:coord>98.763271 28.079738 3763.744338</gx:coord>
					<gx:coord>98.763288 28.079836 3762.981753</gx:coord>
					<gx:coord>98.763315 28.079926 3760.824287</gx:coord>
					<gx:coord>98.763373 28.080003 3765.864060</gx:coord>
					<gx:coord>98.763391 28.080096 3765.362887</gx:coord>
					<gx:coord>98.763405 28.080199 3763.239782</gx:coord>
					<gx:coord>98.763439 28.080298 3759.928818</gx:coord>
					<gx:coord>98.763454 28.080389 3759.887961</gx:coord>
					<gx:coord>98.763468 28.080483 3759.302395</gx:coord>
					<gx:coord>98.763493 28.080586 3757.871892</gx:coord>
					<gx:coord>98.763542 28.080678 3756.117579</gx:coord>
					<gx:coord>98.763574 28.080774 3752.975209</gx:coord>
					<gx:coord>98.763584 28.080875 3752.016739</gx:coord>
					<gx:coord>98.763631 28.080960 3752.037090</gx:coord>
					<gx:coord>98.763671 28.081046 3751.833468</gx:coord>
					<gx:coord>98.763742 28.081112 3748.034290</gx:coord>
					<gx:coord>98.763758 28.081205 3746.458705</gx:coord>
					<gx:coord>98.763752 28.081309 3746.627317</gx:coord>
					<gx:coord>98.763780 28.081407 3745.067508</gx:coord>
					<gx:coord>98.763796 28.081506 3744.538622</gx:coord>
					<gx:coord>98.763815 28.081605 3741.573373</gx:coord>
					<gx:coord>98.763833 28.081705 3741.351393</gx:coord>
					<gx:coord>98.763855 28.081801 3742.422620</gx:coord>
					<gx:coord>98.763861 28.081898 3739.862688</gx:coord>
					<gx:coord>98.763850 28.082001 3741.697851</gx:coord>
					<gx:coord>98.763830 28.082097 3739.645823</gx:coord>
					<gx:coord>98.763868 28.082189 3738.919491</gx:coord>
					<gx:coord>98.763904 28.082277 3739.925060</gx:coord>
					<gx:coord>98.763889 28.082378 3732.998550</gx:coord>
					<gx:coord>98.763871 28.082478 3730.096523</gx:coord>
					<gx:coord>98.763864 28.082579 3729.010489</gx:coord>
					<gx:coord>98.763856 28.082672 3727.307026</gx:coord>
					<gx:coord>98.763833 28.082761 3726.606523</gx:coord>
					<gx:coord>98.763821 28.082853 3720.977197</gx:coord>
					<gx:coord>98.763825 28.082943 3717.741893</gx:coord>
					<gx:coord>98.763837 28.083033 3716.307842</gx:coord>
					<gx:coord>98.763820 28.083123 3715.439033</gx:coord>
					<gx:coord>98.763798 28.083212 3715.000357</gx:coord>
					<gx:coord>98.763733 28.083286 3713.346437</gx:coord>
					<gx:coord>98.763654 28.083345 3708.272490</gx:coord>
					<gx:coord>98.763614 28.083432 3709.125446</gx:coord>
					<gx:coord>98.763582 28.083527 3707.321519</gx:coord>
					<gx:coord>98.763511 28.083596 3707.330973</gx:coord>
					<gx:coord>98.763589 28.083655 3703.738035</gx:coord>
					<gx:coord>98.763672 28.083712 3703.870008</gx:coord>
					<gx:coord>98.763733 28.083787 3703.668807</gx:coord>
					<gx:coord>98.763815 28.083845 3701.367290</gx:coord>
					<gx:coord>98.763886 28.083916 3698.864071</gx:coord>
					<gx:coord>98.763972 28.083979 3695.851561</gx:coord>
					<gx:coord>98.764059 28.084032 3692.039744</gx:coord>
					<gx:coord>98.764149 28.084083 3690.078258</gx:coord>
					<gx:coord>98.764216 28.084163 3682.103117</gx:coord>
					<gx:coord>98.764281 28.084242 3678.489668</gx:coord>
					<gx:coord>98.764333 28.084332 3676.095935</gx:coord>
					<gx:coord>98.764380 28.084418 3674.516453</gx:coord>
					<gx:coord>98.764452 28.084498 3678.297930</gx:coord>
					<gx:coord>98.764478 28.084588 3675.808208</gx:coord>
					<gx:coord>98.764500 28.084487 3671.426263</gx:coord>
					<gx:coord>98.764536 28.084398 3670.493068</gx:coord>
					<gx:coord>98.764551 28.084295 3668.004484</gx:coord>
					<gx:coord>98.764549 28.084201 3666.406723</gx:coord>
					<gx:coord>98.764553 28.084096 3663.732232</gx:coord>
					<gx:coord>98.764521 28.084007 3661.485378</gx:coord>
					<gx:coord>98.764629 28.084000 3654.079495</gx:coord>
					<gx:coord>98.764719 28.084045 3650.204544</gx:coord>
					<gx:coord>98.764773 28.084122 3644.493322</gx:coord>
					<gx:coord>98.764796 28.084216 3640.677229</gx:coord>
					<gx:coord>98.764824 28.084304 3641.268350</gx:coord>
					<gx:coord>98.764847 28.084399 3637.390050</gx:coord>
					<gx:coord>98.764867 28.084489 3635.023168</gx:coord>
					<gx:coord>98.764925 28.084574 3630.841141</gx:coord>
					<gx:coord>98.764966 28.084658 3625.230940</gx:coord>
					<gx:coord>98.765032 28.084730 3622.770702</gx:coord>
					<gx:coord>98.765078 28.084812 3621.485022</gx:coord>
					<gx:coord>98.765103 28.084902 3617.723825</gx:coord>
					<gx:coord>98.765107 28.085000 3615.462079</gx:coord>
					<gx:coord>98.765197 28.084954 3615.255149</gx:coord>
					<gx:coord>98.765236 28.084870 3613.197981</gx:coord>
					<gx:coord>98.765252 28.084773 3609.144627</gx:coord>
					<gx:coord>98.765263 28.084682 3607.492520</gx:coord>
					<gx:coord>98.765280 28.084586 3602.296123</gx:coord>
					<gx:coord>98.765305 28.084491 3600.086935</gx:coord>
					<gx:coord>98.765403 28.084445 3598.276813</gx:coord>
					<gx:coord>98.765489 28.084395 3597.279386</gx:coord>
					<gx:coord>98.765517 28.084298 3594.931017</gx:coord>
					<gx:coord>98.765522 28.084392 3587.624231</gx:coord>
					<gx:coord>98.765507 28.084483 3581.525953</gx:coord>
					<gx:coord>98.765495 28.084574 3580.860418</gx:coord>
					<gx:coord>98.765550 28.084654 3579.172754</gx:coord>
					<gx:coord>98.765582 28.084744 3575.809242</gx:coord>
					<gx:coord>98.765597 28.084835 3573.955849</gx:coord>
					<gx:coord>98.765612 28.084934 3569.862184</gx:coord>
					<gx:coord>98.765672 28.085008 3566.588451</gx:coord>
					<gx:coord>98.765719 28.085091 3564.182648</gx:coord>
					<gx:coord>98.765732 28.085185 3560.639981</gx:coord>
					<gx:coord>98.765825 28.085126 3557.584988</gx:coord>
					<gx:coord>98.765872 28.085044 3554.660470</gx:coord>
					<gx:coord>98.765908 28.084957 3551.198060</gx:coord>
					<gx:coord>98.765955 28.084876 3547.924618</gx:coord>
					<gx:coord>98.765978 28.084787 3545.599177</gx:coord>
					<gx:coord>98.766028 28.084704 3542.889863</gx:coord>
					<gx:coord>98.766105 28.084637 3540.042784</gx:coord>
					<gx:coord>98.766159 28.084560 3539.746602</gx:coord>
					<gx:coord>98.766216 28.084483 3535.347045</gx:coord>
					<gx:coord>98.766252 28.084393 3531.351271</gx:coord>
					<gx:coord>98.766321 28.084325 3529.166405</gx:coord>
					<gx:coord>98.766414 28.084283 3527.909391</gx:coord>
					<gx:coord>98.766465 28.084204 3523.907815</gx:coord>
					<gx:coord>98.766529 28.084285 3518.198515</gx:coord>
					<gx:coord>98.766560 28.084375 3515.638275</gx:coord>
					<gx:coord>98.766559 28.084473 3514.877215</gx:coord>
					<gx:coord>98.766604 28.084557 3512.254804</gx:coord>
					<gx:coord>98.766664 28.084640 3509.152557</gx:coord>
					<gx:coord>98.766724 28.084715 3503.801542</gx:coord>
					<gx:coord>98.766803 28.084780 3504.103917</gx:coord>
					<gx:coord>98.766820 28.084874 3498.687246</gx:coord>
					<gx:coord>98.766836 28.084970 3495.987540</gx:coord>
					<gx:coord>98.766846 28.085060 3491.709759</gx:coord>
					<gx:coord>98.766818 28.085149 3490.488729</gx:coord>
					<gx:coord>98.766884 28.085219 3487.516163</gx:coord>
					<gx:coord>98.766880 28.085313 3483.437249</gx:coord>
					<gx:coord>98.766919 28.085402 3481.883719</gx:coord>
					<gx:coord>98.766935 28.085497 3479.811982</gx:coord>
					<gx:coord>98.766997 28.085572 3476.086065</gx:coord>
					<gx:coord>98.767013 28.085662 3472.997914</gx:coord>
					<gx:coord>98.767102 28.085707 3471.847498</gx:coord>
					<gx:coord>98.767203 28.085722 3467.961621</gx:coord>
					<gx:coord>98.767293 28.085679 3468.723563</gx:coord>
					<gx:coord>98.767395 28.085694 3468.728580</gx:coord>
					<gx:coord>98.767474 28.085630 3466.950230</gx:coord>
					<when>2026-02-19T02:42:44Z</when>
					<when>2026-02-19T02:42:52Z</when>
					<when>2026-02-19T02:43:14Z</when>
					<when>2026-02-19T02:45:06Z</when>
					<when>2026-02-19T02:45:29Z</when>
					<when>2026-02-19T02:46:02Z</when>
					<when>2026-02-19T02:46:19Z</when>
					<when>2026-02-19T02:46:39Z</when>
					<when>2026-02-19T02:46:57Z</when>
					<when>2026-02-19T02:47:13Z</when>
					<when>2026-02-19T02:47:29Z</when>
					<when>2026-02-19T02:47:47Z</when>
					<when>2026-02-19T02:48:06Z</when>
					<when>2026-02-19T02:48:28Z</when>
					<when>2026-02-19T02:48:47Z</when>
					<when>2026-02-19T02:49:09Z</when>
					<when>2026-02-19T02:49:28Z</when>
					<when>2026-02-19T02:50:26Z</when>
					<when>2026-02-19T02:50:45Z</when>
					<when>2026-02-19T02:51:00Z</when>
					<when>2026-02-19T02:51:18Z</when>
					<when>2026-02-19T02:51:44Z</when>
					<when>2026-02-19T02:52:04Z</when>
					<when>2026-02-19T02:52:58Z</when>
					<when>2026-02-19T02:53:15Z</when>
					<when>2026-02-19T02:53:36Z</when>
					<when>2026-02-19T02:53:56Z</when>
					<when>2026-02-19T02:54:17Z</when>
					<when>2026-02-19T02:54:47Z</when>
					<when>2026-02-19T02:55:07Z</when>
					<when>2026-02-19T02:56:09Z</when>
					<when>2026-02-19T02:56:29Z</when>
					<when>2026-02-19T02:56:51Z</when>
					<when>2026-02-19T02:57:16Z</when>
					<when>2026-02-19T02:57:42Z</when>
					<when>2026-02-19T02:58:04Z</when>
					<when>2026-02-19T02:58:27Z</when>
					<when>2026-02-19T02:59:03Z</when>
					<when>2026-02-19T03:01:44Z</when>
					<when>2026-02-19T03:02:06Z</when>
					<when>2026-02-19T03:02:20Z</when>
					<when>2026-02-19T03:03:23Z</when>
					<when>2026-02-19T03:03:40Z</when>
					<when>2026-02-19T03:04:05Z</when>
					<when>2026-02-19T03:04:30Z</when>
					<when>2026-02-19T03:05:09Z</when>
					<when>2026-02-19T03:05:26Z</when>
					<when>2026-02-19T03:06:54Z</when>
					<when>2026-02-19T03:07:13Z</when>
					<when>2026-02-19T03:07:30Z</when>
					<when>2026-02-19T03:07:49Z</when>
					<when>2026-02-19T03:08:08Z</when>
					<when>2026-02-19T03:08:59Z</when>
					<when>2026-02-19T03:09:26Z</when>
					<when>2026-02-19T03:09:44Z</when>
					<when>2026-02-19T03:10:03Z</when>
					<when>2026-02-19T03:11:12Z</when>
					<when>2026-02-19T03:11:30Z</when>
					<when>2026-02-19T03:11:48Z</when>
					<when>2026-02-19T03:13:26Z</when>
					<when>2026-02-19T03:13:49Z</when>
					<when>2026-02-19T03:14:15Z</when>
					<when>2026-02-19T03:14:48Z</when>
					<when>2026-02-19T03:15:03Z</when>
					<when>2026-02-19T03:17:01Z</when>
					<when>2026-02-19T03:17:27Z</when>
					<when>2026-02-19T03:18:15Z</when>
					<when>2026-02-19T03:19:15Z</when>
					<when>2026-02-19T03:19:31Z</when>
					<when>2026-02-19T03:19:44Z</when>
					<when>2026-02-19T03:19:56Z</when>
					<when>2026-02-19T03:20:13Z</when>
					<when>2026-02-19T03:21:03Z</when>
					<when>2026-02-19T03:21:22Z</when>
					<when>2026-02-19T03:22:30Z</when>
					<when>2026-02-19T03:22:48Z</when>
					<when>2026-02-19T03:23:08Z</when>
					<when>2026-02-19T03:23:29Z</when>
					<when>2026-02-19T03:24:45Z</when>
					<when>2026-02-19T03:25:04Z</when>
					<when>2026-02-19T03:25:32Z</when>
					<when>2026-02-19T03:25:49Z</when>
					<when>2026-02-19T03:26:02Z</when>
					<when>2026-02-19T03:26:36Z</when>
					<when>2026-02-19T03:27:04Z</when>
					<when>2026-02-19T03:27:27Z</when>
					<when>2026-02-19T03:27:49Z</when>
					<when>2026-02-19T03:28:08Z</when>
					<when>2026-02-19T03:28:30Z</when>
					<when>2026-02-19T03:29:43Z</when>
					<when>2026-02-19T03:30:14Z</when>
					<when>2026-02-19T03:30:48Z</when>
					<when>2026-02-19T03:31:04Z</when>
					<when>2026-02-19T03:31:19Z</when>
					<when>2026-02-19T03:31:37Z</when>
					<when>2026-02-19T03:31:58Z</when>
					<when>2026-02-19T03:32:20Z</when>
					<when>2026-02-19T03:32:39Z</when>
					<when>2026-02-19T03:33:00Z</when>
					<when>2026-02-19T03:33:22Z</when>
					<when>2026-02-19T03:35:02Z</when>
					<when>2026-02-19T03:35:15Z</when>
					<when>2026-02-19T03:35:28Z</when>
					<when>2026-02-19T03:35:39Z</when>
					<when>2026-02-19T03:35:49Z</when>
					<when>2026-02-19T03:35:58Z</when>
					<when>2026-02-19T03:36:12Z</when>
					<when>2026-02-19T03:36:21Z</when>
					<when>2026-02-19T03:36:31Z</when>
					<when>2026-02-19T03:36:43Z</when>
					<when>2026-02-19T03:36:55Z</when>
					<when>2026-02-19T03:37:08Z</when>
					<when>2026-02-19T03:37:18Z</when>
					<when>2026-02-19T03:37:30Z</when>
					<when>2026-02-19T03:37:46Z</when>
					<when>2026-02-19T03:38:05Z</when>
					<when>2026-02-19T03:38:23Z</when>
					<when>2026-02-19T03:38:40Z</when>
					<when>2026-02-19T03:38:56Z</when>
					<when>2026-02-19T03:39:17Z</when>
					<when>2026-02-19T03:39:34Z</when>
					<when>2026-02-19T03:39:48Z</when>
					<when>2026-02-19T03:40:02Z</when>
					<when>2026-02-19T03:40:20Z</when>
					<when>2026-02-19T03:40:36Z</when>
					<when>2026-02-19T03:40:47Z</when>
					<when>2026-02-19T03:40:58Z</when>
					<when>2026-02-19T03:41:12Z</when>
					<when>2026-02-19T03:41:26Z</when>
					<when>2026-02-19T03:41:41Z</when>
					<when>2026-02-19T03:41:56Z</when>
					<when>2026-02-19T03:42:13Z</when>
					<when>2026-02-19T03:42:34Z</when>
					<when>2026-02-19T03:42:49Z</when>
					<when>2026-02-19T03:43:06Z</when>
					<when>2026-02-19T03:43:24Z</when>
					<when>2026-02-19T03:43:39Z</when>
					<when>2026-02-19T03:43:57Z</when>
					<when>2026-02-19T03:44:15Z</when>
					<when>2026-02-19T03:44:32Z</when>
					<when>2026-02-19T03:44:52Z</when>
					<when>2026-02-19T03:45:08Z</when>
					<when>2026-02-19T03:45:22Z</when>
					<when>2026-02-19T03:45:39Z</when>
					<when>2026-02-19T03:46:01Z</when>
					<when>2026-02-19T03:50:20Z</when>
					<when>2026-02-19T03:50:45Z</when>
					<when>2026-02-19T03:51:12Z</when>
					<when>2026-02-19T03:51:34Z</when>
					<when>2026-02-19T03:51:58Z</when>
					<when>2026-02-19T03:52:22Z</when>
					<when>2026-02-19T03:52:53Z</when>
					<when>2026-02-19T03:54:04Z</when>
					<when>2026-02-19T03:54:24Z</when>
					<when>2026-02-19T03:54:38Z</when>
					<when>2026-02-19T03:54:57Z</when>
					<when>2026-02-19T03:55:25Z</when>
					<when>2026-02-19T03:56:05Z</when>
					<when>2026-02-19T03:56:28Z</when>
					<when>2026-02-19T03:56:57Z</when>
					<when>2026-02-19T03:57:14Z</when>
					<when>2026-02-19T03:57:43Z</when>
					<when>2026-02-19T03:58:01Z</when>
					<when>2026-02-19T03:58:18Z</when>
					<when>2026-02-19T03:58:39Z</when>
					<when>2026-02-19T03:59:33Z</when>
					<when>2026-02-19T03:59:46Z</when>
					<when>2026-02-19T04:00:56Z</when>
					<when>2026-02-19T04:03:49Z</when>
					<when>2026-02-19T04:04:39Z</when>
					<when>2026-02-19T04:04:55Z</when>
					<when>2026-02-19T04:05:15Z</when>
					<when>2026-02-19T04:05:41Z</when>
					<when>2026-02-19T04:06:17Z</when>
					<when>2026-02-19T04:06:47Z</when>
					<when>2026-02-19T04:07:05Z</when>
					<when>2026-02-19T04:07:24Z</when>
					<when>2026-02-19T04:07:51Z</when>
					<when>2026-02-19T04:08:02Z</when>
					<when>2026-02-19T04:08:11Z</when>
					<when>2026-02-19T04:08:34Z</when>
					<when>2026-02-19T04:13:49Z</when>
					<when>2026-02-19T04:15:29Z</when>
					<when>2026-02-19T04:15:42Z</when>
					<when>2026-02-19T04:18:25Z</when>
					<when>2026-02-19T04:19:43Z</when>
					<when>2026-02-19T04:20:01Z</when>
					<when>2026-02-19T04:20:26Z</when>
					<when>2026-02-19T04:20:40Z</when>
					<when>2026-02-19T04:20:54Z</when>
					<when>2026-02-19T04:21:05Z</when>
					<when>2026-02-19T04:21:19Z</when>
					<when>2026-02-19T04:21:44Z</when>
					<when>2026-02-19T04:22:01Z</when>
					<when>2026-02-19T04:22:14Z</when>
					<when>2026-02-19T04:22:32Z</when>
					<when>2026-02-19T04:22:44Z</when>
					<when>2026-02-19T04:22:54Z</when>
					<when>2026-02-19T04:23:05Z</when>
					<when>2026-02-19T04:23:20Z</when>
					<when>2026-02-19T04:23:37Z</when>
					<when>2026-02-19T04:23:51Z</when>
					<when>2026-02-19T04:24:05Z</when>
					<when>2026-02-19T04:24:19Z</when>
					<when>2026-02-19T04:24:36Z</when>
					<when>2026-02-19T04:24:50Z</when>
					<when>2026-02-19T04:25:03Z</when>
					<when>2026-02-19T04:25:55Z</when>
					<when>2026-02-19T04:26:05Z</when>
					<when>2026-02-19T04:26:14Z</when>
					<when>2026-02-19T04:27:56Z</when>
					<when>2026-02-19T04:28:13Z</when>
					<when>2026-02-19T04:28:37Z</when>
					<when>2026-02-19T04:28:49Z</when>
					<when>2026-02-19T04:29:01Z</when>
					<when>2026-02-19T04:29:14Z</when>
					<when>2026-02-19T04:29:26Z</when>
					<when>2026-02-19T04:29:41Z</when>
					<when>2026-02-19T04:29:56Z</when>
					<when>2026-02-19T04:30:11Z</when>
					<when>2026-02-19T04:37:20Z</when>
					<when>2026-02-19T04:37:39Z</when>
					<when>2026-02-19T04:37:53Z</when>
					<when>2026-02-19T04:38:14Z</when>
					<when>2026-02-19T04:38:31Z</when>
					<when>2026-02-19T04:38:43Z</when>
					<when>2026-02-19T04:38:54Z</when>
					<when>2026-02-19T04:39:03Z</when>
					<when>2026-02-19T04:39:17Z</when>
					<when>2026-02-19T04:39:29Z</when>
					<when>2026-02-19T04:39:42Z</when>
					<when>2026-02-19T04:39:55Z</when>
					<when>2026-02-19T04:40:05Z</when>
					<when>2026-02-19T04:40:16Z</when>
					<when>2026-02-19T04:40:26Z</when>
					<when>2026-02-19T04:40:35Z</when>
					<when>2026-02-19T04:40:45Z</when>
					<when>2026-02-19T04:40:55Z</when>
					<when>2026-02-19T04:41:05Z</when>
					<when>2026-02-19T04:41:16Z</when>
					<when>2026-02-19T04:41:32Z</when>
					<when>2026-02-19T04:41:50Z</when>
					<when>2026-02-19T04:41:58Z</when>
					<when>2026-02-19T04:42:06Z</when>
					<when>2026-02-19T04:42:24Z</when>
					<when>2026-02-19T04:42:34Z</when>
					<when>2026-02-19T04:42:47Z</when>
					<when>2026-02-19T04:43:32Z</when>
					<when>2026-02-19T04:43:41Z</when>
					<when>2026-02-19T04:43:53Z</when>
					<when>2026-02-19T04:44:04Z</when>
					<when>2026-02-19T04:44:43Z</when>
					<when>2026-02-19T04:46:02Z</when>
					<when>2026-02-19T04:46:35Z</when>
					<when>2026-02-19T04:49:59Z</when>
					<when>2026-02-19T04:50:52Z</when>
					<when>2026-02-19T04:54:29Z</when>
					<when>2026-02-19T04:55:37Z</when>
					<when>2026-02-19T04:57:32Z</when>
					<when>2026-02-19T04:58:02Z</when>
					<when>2026-02-19T04:59:46Z</when>
					<when>2026-02-19T04:59:51Z</when>
					<when>2026-02-19T04:59:57Z</when>
					<when>2026-02-19T05:00:20Z</when>
					<when>2026-02-19T05:04:55Z</when>
					<when>2026-02-19T05:06:23Z</when>
					<when>2026-02-19T05:06:36Z</when>
					<when>2026-02-19T05:08:11Z</when>
					<when>2026-02-19T05:08:43Z</when>
					<when>2026-02-19T05:08:59Z</when>
					<when>2026-02-19T05:09:34Z</when>
					<when>2026-02-19T05:10:15Z</when>
					<when>2026-02-19T05:10:52Z</when>
					<when>2026-02-19T05:11:15Z</when>
					<when>2026-02-19T05:11:26Z</when>
					<when>2026-02-19T05:11:51Z</when>
					<when>2026-02-19T05:12:10Z</when>
					<when>2026-02-19T05:12:39Z</when>
					<when>2026-02-19T05:12:48Z</when>
					<when>2026-02-19T05:13:01Z</when>
					<when>2026-02-19T05:13:24Z</when>
					<when>2026-02-19T05:13:35Z</when>
					<when>2026-02-19T05:13:47Z</when>
					<when>2026-02-19T05:14:01Z</when>
					<when>2026-02-19T05:14:17Z</when>
					<when>2026-02-19T05:14:42Z</when>
					<when>2026-02-19T05:14:55Z</when>
					<when>2026-02-19T05:15:09Z</when>
					<when>2026-02-19T05:16:16Z</when>
					<when>2026-02-19T05:16:43Z</when>
					<when>2026-02-19T05:16:57Z</when>
					<when>2026-02-19T05:17:24Z</when>
					<when>2026-02-19T05:17:47Z</when>
					<when>2026-02-19T05:18:02Z</when>
					<when>2026-02-19T05:18:24Z</when>
					<when>2026-02-19T05:18:40Z</when>
					<when>2026-02-19T05:18:58Z</when>
					<when>2026-02-19T05:19:19Z</when>
					<when>2026-02-19T05:19:38Z</when>
					<when>2026-02-19T05:19:57Z</when>
					<when>2026-02-19T05:20:17Z</when>
					<when>2026-02-19T05:20:42Z</when>
					<when>2026-02-19T05:21:01Z</when>
					<when>2026-02-19T05:21:31Z</when>
					<when>2026-02-19T05:21:49Z</when>
					<when>2026-02-19T05:22:12Z</when>
					<when>2026-02-19T05:22:25Z</when>
					<when>2026-02-19T05:22:40Z</when>
					<when>2026-02-19T05:22:54Z</when>
					<when>2026-02-19T05:23:07Z</when>
					<when>2026-02-19T05:23:21Z</when>
					<when>2026-02-19T05:23:32Z</when>
					<when>2026-02-19T05:23:44Z</when>
					<when>2026-02-19T05:23:56Z</when>
					<when>2026-02-19T05:24:08Z</when>
					<when>2026-02-19T05:24:20Z</when>
					<when>2026-02-19T05:24:35Z</when>
					<when>2026-02-19T05:24:49Z</when>
					<when>2026-02-19T05:25:01Z</when>
					<when>2026-02-19T05:25:13Z</when>
					<when>2026-02-19T05:25:25Z</when>
					<when>2026-02-19T05:25:36Z</when>
					<when>2026-02-19T05:25:49Z</when>
					<when>2026-02-19T05:26:01Z</when>
					<when>2026-02-19T05:26:12Z</when>
					<when>2026-02-19T05:26:26Z</when>
					<when>2026-02-19T05:26:39Z</when>
					<when>2026-02-19T05:26:53Z</when>
					<when>2026-02-19T05:27:08Z</when>
					<when>2026-02-19T05:27:21Z</when>
					<when>2026-02-19T05:27:33Z</when>
					<when>2026-02-19T05:27:47Z</when>
					<when>2026-02-19T05:28:00Z</when>
					<when>2026-02-19T05:28:11Z</when>
					<when>2026-02-19T05:28:22Z</when>
					<when>2026-02-19T05:28:35Z</when>
					<when>2026-02-19T05:29:08Z</when>
					<when>2026-02-19T05:29:21Z</when>
					<when>2026-02-19T05:29:36Z</when>
					<when>2026-02-19T05:29:48Z</when>
					<when>2026-02-19T05:29:59Z</when>
					<when>2026-02-19T05:30:12Z</when>
					<when>2026-02-19T05:30:25Z</when>
					<when>2026-02-19T05:30:36Z</when>
					<when>2026-02-19T05:30:51Z</when>
					<when>2026-02-19T05:31:06Z</when>
					<when>2026-02-19T05:31:19Z</when>
					<when>2026-02-19T05:31:30Z</when>
					<when>2026-02-19T05:31:40Z</when>
					<when>2026-02-19T05:31:48Z</when>
					<when>2026-02-19T05:31:57Z</when>
					<when>2026-02-19T05:32:06Z</when>
					<when>2026-02-19T05:32:15Z</when>
					<when>2026-02-19T05:32:25Z</when>
					<when>2026-02-19T05:32:48Z</when>
					<when>2026-02-19T05:33:08Z</when>
					<when>2026-02-19T05:33:23Z</when>
					<when>2026-02-19T05:33:40Z</when>
					<when>2026-02-19T05:35:37Z</when>
					<when>2026-02-19T05:35:49Z</when>
					<when>2026-02-19T05:36:03Z</when>
					<when>2026-02-19T05:36:23Z</when>
					<when>2026-02-19T05:36:37Z</when>
					<when>2026-02-19T05:36:48Z</when>
					<when>2026-02-19T05:37:46Z</when>
					<when>2026-02-19T05:38:28Z</when>
					<when>2026-02-19T05:47:07Z</when>
					<when>2026-02-19T05:47:21Z</when>
					<when>2026-02-19T05:47:35Z</when>
					<when>2026-02-19T05:47:53Z</when>
					<when>2026-02-19T05:48:04Z</when>
					<when>2026-02-19T05:48:15Z</when>
					<when>2026-02-19T05:48:25Z</when>
					<when>2026-02-19T05:48:33Z</when>
					<when>2026-02-19T05:48:40Z</when>
					<when>2026-02-19T05:48:49Z</when>
					<when>2026-02-19T05:49:00Z</when>
					<when>2026-02-19T05:49:11Z</when>
					<when>2026-02-19T05:49:23Z</when>
					<when>2026-02-19T05:49:34Z</when>
					<when>2026-02-19T05:49:47Z</when>
					<when>2026-02-19T05:50:00Z</when>
					<when>2026-02-19T05:50:13Z</when>
					<when>2026-02-19T05:50:26Z</when>
					<when>2026-02-19T05:50:39Z</when>
					<when>2026-02-19T05:50:50Z</when>
					<when>2026-02-19T05:51:00Z</when>
					<when>2026-02-19T05:51:10Z</when>
					<when>2026-02-19T05:51:19Z</when>
					<when>2026-02-19T05:51:28Z</when>
					<when>2026-02-19T05:51:38Z</when>
					<when>2026-02-19T05:53:55Z</when>
					<when>2026-02-19T05:54:05Z</when>
					<when>2026-02-19T05:54:17Z</when>
					<when>2026-02-19T05:54:30Z</when>
					<when>2026-02-19T05:54:43Z</when>
					<when>2026-02-19T05:54:54Z</when>
					<when>2026-02-19T05:55:06Z</when>
					<when>2026-02-19T05:55:18Z</when>
					<when>2026-02-19T05:55:48Z</when>
					<when>2026-02-19T05:56:08Z</when>
					<when>2026-02-19T05:56:20Z</when>
					<when>2026-02-19T05:56:33Z</when>
					<when>2026-02-19T05:56:47Z</when>
					<when>2026-02-19T05:57:07Z</when>
					<when>2026-02-19T05:57:23Z</when>
					<when>2026-02-19T05:57:34Z</when>
					<when>2026-02-19T05:57:45Z</when>
					<when>2026-02-19T05:57:54Z</when>
					<when>2026-02-19T05:58:02Z</when>
					<when>2026-02-19T05:58:10Z</when>
					<when>2026-02-19T05:58:29Z</when>
					<when>2026-02-19T05:59:24Z</when>
					<when>2026-02-19T06:02:57Z</when>
					<when>2026-02-19T06:07:24Z</when>
					<when>2026-02-19T06:12:53Z</when>
					<when>2026-02-19T06:17:09Z</when>
					<when>2026-02-19T06:17:27Z</when>
					<when>2026-02-19T06:18:00Z</when>
					<when>2026-02-19T06:19:40Z</when>
					<when>2026-02-19T06:19:50Z</when>
					<when>2026-02-19T06:19:58Z</when>
					<when>2026-02-19T06:20:05Z</when>
					<when>2026-02-19T06:20:13Z</when>
					<when>2026-02-19T06:20:21Z</when>
					<when>2026-02-19T06:20:29Z</when>
					<when>2026-02-19T06:20:37Z</when>
					<when>2026-02-19T06:20:45Z</when>
					<when>2026-02-19T06:20:52Z</when>
					<when>2026-02-19T06:21:00Z</when>
					<when>2026-02-19T06:21:08Z</when>
					<when>2026-02-19T06:21:16Z</when>
					<when>2026-02-19T06:21:26Z</when>
					<when>2026-02-19T06:21:35Z</when>
					<when>2026-02-19T06:21:44Z</when>
					<when>2026-02-19T06:21:53Z</when>
					<when>2026-02-19T06:22:01Z</when>
					<when>2026-02-19T06:22:08Z</when>
					<when>2026-02-19T06:22:16Z</when>
					<when>2026-02-19T06:22:27Z</when>
					<when>2026-02-19T06:22:45Z</when>
					<when>2026-02-19T06:22:56Z</when>
					<when>2026-02-19T06:23:20Z</when>
					<when>2026-02-19T06:23:28Z</when>
					<when>2026-02-19T06:23:35Z</when>
					<when>2026-02-19T06:23:42Z</when>
					<when>2026-02-19T06:23:49Z</when>
					<when>2026-02-19T06:23:58Z</when>
					<when>2026-02-19T06:24:08Z</when>
					<when>2026-02-19T06:24:17Z</when>
					<when>2026-02-19T06:24:26Z</when>
					<when>2026-02-19T06:24:36Z</when>
					<when>2026-02-19T06:24:46Z</when>
					<when>2026-02-19T06:24:57Z</when>
					<when>2026-02-19T06:25:07Z</when>
					<when>2026-02-19T06:25:29Z</when>
					<when>2026-02-19T06:25:43Z</when>
					<when>2026-02-19T06:25:56Z</when>
					<when>2026-02-19T06:26:08Z</when>
					<when>2026-02-19T06:26:23Z</when>
					<when>2026-02-19T06:26:33Z</when>
					<when>2026-02-19T06:26:42Z</when>
					<when>2026-02-19T06:26:51Z</when>
					<when>2026-02-19T06:26:59Z</when>
					<when>2026-02-19T06:27:07Z</when>
					<when>2026-02-19T06:27:22Z</when>
					<when>2026-02-19T06:27:34Z</when>
					<when>2026-02-19T06:27:44Z</when>
					<when>2026-02-19T06:27:54Z</when>
					<when>2026-02-19T06:28:04Z</when>
					<when>2026-02-19T06:28:13Z</when>
					<when>2026-02-19T06:28:22Z</when>
					<when>2026-02-19T06:28:30Z</when>
					<when>2026-02-19T06:28:38Z</when>
					<when>2026-02-19T06:28:47Z</when>
					<when>2026-02-19T06:28:56Z</when>
					<when>2026-02-19T06:29:04Z</when>
					<when>2026-02-19T06:29:17Z</when>
					<when>2026-02-19T06:29:24Z</when>
					<when>2026-02-19T06:29:32Z</when>
					<when>2026-02-19T06:29:40Z</when>
					<when>2026-02-19T06:29:49Z</when>
					<when>2026-02-19T06:29:59Z</when>
					<when>2026-02-19T06:30:10Z</when>
					<when>2026-02-19T06:30:22Z</when>
					<when>2026-02-19T06:30:32Z</when>
					<when>2026-02-19T06:30:42Z</when>
					<when>2026-02-19T06:30:52Z</when>
					<when>2026-02-19T06:31:02Z</when>
					<when>2026-02-19T06:31:12Z</when>
					<when>2026-02-19T06:31:22Z</when>
					<when>2026-02-19T06:31:31Z</when>
					<when>2026-02-19T06:31:39Z</when>
					<when>2026-02-19T06:31:49Z</when>
					<when>2026-02-19T06:31:59Z</when>
					<when>2026-02-19T06:32:08Z</when>
					<when>2026-02-19T06:32:16Z</when>
					<when>2026-02-19T06:32:27Z</when>
					<when>2026-02-19T06:32:37Z</when>
					<when>2026-02-19T06:32:46Z</when>
					<when>2026-02-19T06:32:55Z</when>
					<when>2026-02-19T06:33:03Z</when>
					<when>2026-02-19T06:33:12Z</when>
					<when>2026-02-19T06:33:21Z</when>
					<when>2026-02-19T06:33:30Z</when>
					<when>2026-02-19T06:33:39Z</when>
					<when>2026-02-19T06:33:49Z</when>
					<when>2026-02-19T06:34:00Z</when>
					<when>2026-02-19T06:34:09Z</when>
					<when>2026-02-19T06:34:18Z</when>
					<when>2026-02-19T06:34:27Z</when>
					<when>2026-02-19T06:34:35Z</when>
					<when>2026-02-19T06:34:44Z</when>
					<when>2026-02-19T06:34:53Z</when>
					<when>2026-02-19T06:35:02Z</when>
					<when>2026-02-19T06:35:10Z</when>
					<when>2026-02-19T06:35:18Z</when>
					<when>2026-02-19T06:35:26Z</when>
					<when>2026-02-19T06:35:34Z</when>
					<when>2026-02-19T06:35:43Z</when>
					<when>2026-02-19T06:35:51Z</when>
					<when>2026-02-19T06:35:59Z</when>
					<when>2026-02-19T06:36:08Z</when>
					<when>2026-02-19T06:36:16Z</when>
					<when>2026-02-19T06:36:24Z</when>
					<when>2026-02-19T06:36:33Z</when>
					<when>2026-02-19T06:36:43Z</when>
					<when>2026-02-19T06:36:53Z</when>
					<when>2026-02-19T06:37:02Z</when>
					<when>2026-02-19T06:37:10Z</when>
					<when>2026-02-19T06:37:18Z</when>
					<when>2026-02-19T06:37:28Z</when>
					<when>2026-02-19T06:37:37Z</when>
					<when>2026-02-19T06:37:46Z</when>
					<when>2026-02-19T06:37:56Z</when>
					<when>2026-02-19T06:38:05Z</when>
					<when>2026-02-19T06:38:14Z</when>
					<when>2026-02-19T06:38:24Z</when>
					<when>2026-02-19T06:38:37Z</when>
					<when>2026-02-19T06:38:46Z</when>
					<when>2026-02-19T06:38:55Z</when>
					<when>2026-02-19T06:39:04Z</when>
					<when>2026-02-19T06:39:14Z</when>
					<when>2026-02-19T06:39:22Z</when>
					<when>2026-02-19T06:39:33Z</when>
					<when>2026-02-19T06:39:43Z</when>
					<when>2026-02-19T06:39:52Z</when>
					<when>2026-02-19T06:40:02Z</when>
					<when>2026-02-19T06:40:12Z</when>
					<when>2026-02-19T06:40:23Z</when>
					<when>2026-02-19T06:40:33Z</when>
					<when>2026-02-19T06:40:42Z</when>
					<when>2026-02-19T06:40:52Z</when>
					<when>2026-02-19T06:41:04Z</when>
					<when>2026-02-19T06:41:17Z</when>
					<when>2026-02-19T06:41:27Z</when>
					<when>2026-02-19T06:41:37Z</when>
					<when>2026-02-19T06:41:48Z</when>
					<when>2026-02-19T06:41:58Z</when>
					<when>2026-02-19T06:42:08Z</when>
					<when>2026-02-19T06:42:17Z</when>
					<when>2026-02-19T06:42:27Z</when>
					<when>2026-02-19T06:42:37Z</when>
					<when>2026-02-19T06:42:47Z</when>
					<when>2026-02-19T06:42:59Z</when>
					<when>2026-02-19T06:43:16Z</when>
					<when>2026-02-19T06:45:01Z</when>
					<when>2026-02-19T06:45:12Z</when>
					<when>2026-02-19T06:45:23Z</when>
					<when>2026-02-19T06:45:34Z</when>
					<when>2026-02-19T06:45:51Z</when>
					<when>2026-02-19T06:46:03Z</when>
					<when>2026-02-19T06:46:14Z</when>
					<when>2026-02-19T06:46:25Z</when>
					<when>2026-02-19T06:46:35Z</when>
					<when>2026-02-19T06:46:47Z</when>
					<when>2026-02-19T06:46:58Z</when>
					<when>2026-02-19T06:47:11Z</when>
					<when>2026-02-19T06:47:23Z</when>
					<when>2026-02-19T06:47:35Z</when>
					<when>2026-02-19T06:47:46Z</when>
					<when>2026-02-19T06:48:00Z</when>
					<when>2026-02-19T06:48:13Z</when>
					<when>2026-02-19T06:48:32Z</when>
					<when>2026-02-19T06:48:46Z</when>
					<when>2026-02-19T06:48:59Z</when>
					<when>2026-02-19T06:49:12Z</when>
					<when>2026-02-19T06:49:25Z</when>
					<when>2026-02-19T06:49:39Z</when>
					<when>2026-02-19T06:49:52Z</when>
					<when>2026-02-19T06:50:06Z</when>
					<when>2026-02-19T06:50:20Z</when>
					<when>2026-02-19T06:50:36Z</when>
					<when>2026-02-19T06:50:49Z</when>
					<when>2026-02-19T06:51:00Z</when>
					<when>2026-02-19T06:51:11Z</when>
					<when>2026-02-19T06:51:22Z</when>
					<when>2026-02-19T06:51:36Z</when>
					<when>2026-02-19T06:55:58Z</when>
					<when>2026-02-19T06:57:10Z</when>
					<when>2026-02-19T06:57:56Z</when>
					<when>2026-02-19T06:58:10Z</when>
					<when>2026-02-19T06:58:28Z</when>
					<when>2026-02-19T06:58:44Z</when>
					<when>2026-02-19T06:59:15Z</when>
					<when>2026-02-19T06:59:29Z</when>
					<when>2026-02-19T06:59:38Z</when>
					<when>2026-02-19T06:59:46Z</when>
					<when>2026-02-19T06:59:54Z</when>
					<when>2026-02-19T07:00:01Z</when>
					<when>2026-02-19T07:00:08Z</when>
					<when>2026-02-19T07:00:16Z</when>
					<when>2026-02-19T07:00:25Z</when>
					<when>2026-02-19T07:00:33Z</when>
					<when>2026-02-19T07:00:41Z</when>
					<when>2026-02-19T07:00:49Z</when>
					<when>2026-02-19T07:00:57Z</when>
					<when>2026-02-19T07:01:05Z</when>
					<when>2026-02-19T07:01:13Z</when>
					<when>2026-02-19T07:01:22Z</when>
					<when>2026-02-19T07:01:32Z</when>
					<when>2026-02-19T07:01:39Z</when>
					<when>2026-02-19T07:01:47Z</when>
					<when>2026-02-19T07:01:55Z</when>
					<when>2026-02-19T07:02:03Z</when>
					<when>2026-02-19T07:02:12Z</when>
					<when>2026-02-19T07:02:21Z</when>
					<when>2026-02-19T07:02:29Z</when>
					<when>2026-02-19T07:02:38Z</when>
					<when>2026-02-19T07:02:48Z</when>
					<when>2026-02-19T07:03:08Z</when>
					<when>2026-02-19T07:04:19Z</when>
					<when>2026-02-19T07:04:33Z</when>
					<when>2026-02-19T07:04:46Z</when>
					<when>2026-02-19T07:04:57Z</when>
					<when>2026-02-19T07:06:47Z</when>
					<when>2026-02-19T07:07:48Z</when>
					<when>2026-02-19T07:08:06Z</when>
					<when>2026-02-19T07:08:20Z</when>
					<when>2026-02-19T07:08:30Z</when>
					<when>2026-02-19T07:08:39Z</when>
					<when>2026-02-19T07:08:47Z</when>
					<when>2026-02-19T07:08:55Z</when>
					<when>2026-02-19T07:09:03Z</when>
					<when>2026-02-19T07:09:13Z</when>
					<when>2026-02-19T07:09:28Z</when>
					<when>2026-02-19T07:09:48Z</when>
					<when>2026-02-19T07:10:01Z</when>
					<when>2026-02-19T07:10:10Z</when>
					<when>2026-02-19T07:10:22Z</when>
					<when>2026-02-19T07:10:30Z</when>
					<when>2026-02-19T07:10:44Z</when>
					<when>2026-02-19T07:10:58Z</when>
					<when>2026-02-19T07:11:16Z</when>
					<when>2026-02-19T07:11:34Z</when>
					<when>2026-02-19T07:11:46Z</when>
					<when>2026-02-19T07:11:54Z</when>
					<when>2026-02-19T07:12:03Z</when>
					<when>2026-02-19T07:12:13Z</when>
					<when>2026-02-19T07:12:31Z</when>
					<when>2026-02-19T07:12:43Z</when>
					<when>2026-02-19T07:12:56Z</when>
					<when>2026-02-19T07:13:17Z</when>
					<when>2026-02-19T07:13:33Z</when>
					<when>2026-02-19T07:13:49Z</when>
					<when>2026-02-19T07:14:01Z</when>
					<when>2026-02-19T07:14:13Z</when>
					<when>2026-02-19T07:14:24Z</when>
					<when>2026-02-19T07:14:47Z</when>
					<when>2026-02-19T07:14:58Z</when>
					<when>2026-02-19T07:15:07Z</when>
					<when>2026-02-19T07:15:17Z</when>
					<when>2026-02-19T07:15:26Z</when>
					<when>2026-02-19T07:15:36Z</when>
					<when>2026-02-19T07:15:45Z</when>
					<when>2026-02-19T07:15:54Z</when>
					<when>2026-02-19T07:16:03Z</when>
					<when>2026-02-19T07:16:16Z</when>
					<when>2026-02-19T07:16:28Z</when>
					<when>2026-02-19T07:16:36Z</when>
					<when>2026-02-19T07:16:46Z</when>
					<when>2026-02-19T07:16:56Z</when>
					<when>2026-02-19T07:17:07Z</when>
					<when>2026-02-19T07:17:22Z</when>
					<when>2026-02-19T07:17:30Z</when>
					<when>2026-02-19T07:17:39Z</when>
					<when>2026-02-19T07:17:48Z</when>
					<when>2026-02-19T07:17:56Z</when>
					<when>2026-02-19T07:18:04Z</when>
					<when>2026-02-19T07:18:13Z</when>
					<when>2026-02-19T07:18:22Z</when>
					<when>2026-02-19T07:18:33Z</when>
					<when>2026-02-19T07:18:42Z</when>
					<when>2026-02-19T07:18:53Z</when>
					<when>2026-02-19T07:19:01Z</when>
					<when>2026-02-19T07:19:09Z</when>
					<when>2026-02-19T07:19:16Z</when>
					<when>2026-02-19T07:19:23Z</when>
					<when>2026-02-19T07:19:31Z</when>
					<when>2026-02-19T07:19:40Z</when>
					<when>2026-02-19T07:19:47Z</when>
					<when>2026-02-19T07:19:55Z</when>
					<when>2026-02-19T07:20:03Z</when>
					<when>2026-02-19T07:20:10Z</when>
					<when>2026-02-19T07:20:17Z</when>
					<when>2026-02-19T07:20:25Z</when>
					<when>2026-02-19T07:20:32Z</when>
					<when>2026-02-19T07:20:43Z</when>
					<when>2026-02-19T07:20:50Z</when>
					<when>2026-02-19T07:20:59Z</when>
					<when>2026-02-19T07:21:07Z</when>
					<when>2026-02-19T07:21:39Z</when>
					<when>2026-02-19T07:22:00Z</when>
					<when>2026-02-19T07:22:16Z</when>
					<when>2026-02-19T07:22:31Z</when>
					<when>2026-02-19T07:22:41Z</when>
					<when>2026-02-19T07:22:53Z</when>
					<when>2026-02-19T07:23:59Z</when>
					<when>2026-02-19T07:25:17Z</when>
					<when>2026-02-19T07:25:56Z</when>
					<when>2026-02-19T07:27:43Z</when>
					<when>2026-02-19T07:28:45Z</when>
					<when>2026-02-19T07:29:04Z</when>
					<when>2026-02-19T07:29:17Z</when>
					<when>2026-02-19T07:29:27Z</when>
					<when>2026-02-19T07:29:40Z</when>
					<when>2026-02-19T07:29:52Z</when>
					<when>2026-02-19T07:30:07Z</when>
					<when>2026-02-19T07:30:18Z</when>
					<when>2026-02-19T07:30:32Z</when>
					<when>2026-02-19T07:30:57Z</when>
					<when>2026-02-19T07:31:12Z</when>
					<when>2026-02-19T07:31:21Z</when>
					<when>2026-02-19T07:31:41Z</when>
					<when>2026-02-19T07:31:59Z</when>
					<when>2026-02-19T07:32:17Z</when>
					<when>2026-02-19T07:32:41Z</when>
					<when>2026-02-19T07:32:55Z</when>
					<when>2026-02-19T07:33:07Z</when>
					<when>2026-02-19T07:33:17Z</when>
					<when>2026-02-19T07:33:27Z</when>
					<when>2026-02-19T07:33:36Z</when>
					<when>2026-02-19T07:34:01Z</when>
					<when>2026-02-19T07:34:14Z</when>
					<when>2026-02-19T07:34:32Z</when>
					<when>2026-02-19T07:34:47Z</when>
					<when>2026-02-19T07:35:05Z</when>
					<when>2026-02-19T07:35:21Z</when>
					<when>2026-02-19T07:35:36Z</when>
					<when>2026-02-19T07:35:52Z</when>
					<when>2026-02-19T07:36:16Z</when>
					<when>2026-02-19T07:36:30Z</when>
					<when>2026-02-19T07:36:44Z</when>
					<when>2026-02-19T07:37:00Z</when>
					<when>2026-02-19T07:37:18Z</when>
					<when>2026-02-19T07:37:44Z</when>
					<when>2026-02-19T07:38:26Z</when>
					<when>2026-02-19T07:38:39Z</when>
					<when>2026-02-19T07:38:50Z</when>
					<when>2026-02-19T07:39:03Z</when>
					<when>2026-02-19T07:39:13Z</when>
					<when>2026-02-19T07:39:25Z</when>
					<when>2026-02-19T07:39:40Z</when>
					<when>2026-02-19T07:39:54Z</when>
					<when>2026-02-19T07:40:21Z</when>
					<when>2026-02-19T07:41:04Z</when>
					<when>2026-02-19T07:41:22Z</when>
					<when>2026-02-19T07:41:37Z</when>
					<when>2026-02-19T07:41:49Z</when>
					<when>2026-02-19T07:42:07Z</when>
					<when>2026-02-19T07:42:25Z</when>
					<when>2026-02-19T07:42:39Z</when>
					<when>2026-02-19T07:42:54Z</when>
					<when>2026-02-19T07:43:14Z</when>
					<when>2026-02-19T07:43:33Z</when>
					<when>2026-02-19T07:43:47Z</when>
					<when>2026-02-19T07:44:03Z</when>
					<when>2026-02-19T07:44:19Z</when>
					<when>2026-02-19T07:44:36Z</when>
					<when>2026-02-19T07:44:49Z</when>
					<when>2026-02-19T07:45:05Z</when>
					<when>2026-02-19T07:45:22Z</when>
					<when>2026-02-19T07:45:36Z</when>
					<when>2026-02-19T07:45:51Z</when>
					<when>2026-02-19T07:46:01Z</when>
					<when>2026-02-19T07:46:11Z</when>
					<when>2026-02-19T07:46:23Z</when>
					<when>2026-02-19T07:46:43Z</when>
					<when>2026-02-19T07:47:00Z</when>
					<when>2026-02-19T07:47:12Z</when>
					<when>2026-02-19T07:47:28Z</when>
					<when>2026-02-19T07:47:42Z</when>
					<when>2026-02-19T07:47:57Z</when>
					<when>2026-02-19T07:48:10Z</when>
					<when>2026-02-19T07:48:26Z</when>
					<when>2026-02-19T07:48:42Z</when>
					<when>2026-02-19T07:48:52Z</when>
					<when>2026-02-19T07:49:09Z</when>
					<when>2026-02-19T07:49:21Z</when>
					<when>2026-02-19T07:49:33Z</when>
					<when>2026-02-19T07:49:46Z</when>
					<when>2026-02-19T07:49:56Z</when>
					<when>2026-02-19T07:50:11Z</when>
					<when>2026-02-19T07:50:24Z</when>
					<when>2026-02-19T07:50:45Z</when>
					<when>2026-02-19T07:51:00Z</when>
					<when>2026-02-19T07:51:09Z</when>
					<when>2026-02-19T07:51:20Z</when>
					<when>2026-02-19T07:51:34Z</when>
				</gx:Track>
			</Placemark>
		</Folder>
	</Document>
</kml>
